{
  "type": "FeatureCollection",
  "features": [
    {
      "type": "Feature",
      "geometry": {
        "coordinates": [
          [
            [
              7.203083,
              43.527181
            ],
            [
              6.955204,
              43.546528
            ],
            [
              6.647587,
              43.714465
            ],
            [
              6.667328,
              43.804324
            ],
            [
              6.727753,
              43.857789
            ],
            [
              6.838474,
              43.957756
            ],
            [
              6.775818,
              44.031359
            ],
            [
              6.729813,
              44.110265
            ],
            [
              6.775131,
              44.279581
            ],
            [
              6.889801,
              44.360639
            ],
            [
              7.367191,
              44.169193
            ],
            [
              7.622623,
              44.127818
            ],
            [
              7.707767,
              43.761086
            ],
            [
              7.203083,
              43.527181
            ]
          ]
        ],
        "type": "Polygon"
      },
      "properties": {},
      "id": "Y3NTE"
    },
    {
      "type": "Feature",
      "geometry": {
        "coordinates": [
          [
            [
              6.373444,
              44.485832
            ],
            [
              6.470947,
              44.435858
            ],
            [
              6.632996,
              44.432917
            ],
            [
              6.767578,
              44.456441
            ],
            [
              6.83075,
              44.416249
            ],
            [
              6.819763,
              44.355419
            ],
            [
              6.763458,
              44.321051
            ],
            [
              6.757965,
              44.290595
            ],
            [
              6.751785,
              44.276669
            ],
            [
              6.664581,
              44.159746
            ],
            [
              6.734619,
              44.019722
            ],
            [
              6.80191,
              43.970339
            ],
            [
              6.757965,
              43.934758
            ],
            [
              6.619263,
              43.913993
            ],
            [
              6.291046,
              43.918937
            ],
            [
              5.8255,
              43.850662
            ],
            [
              5.796661,
              43.932781
            ],
            [
              6.144104,
              44.055253
            ],
            [
              6.152344,
              44.137089
            ],
            [
              6.293793,
              44.434673
            ],
            [
              6.373444,
              44.485832
            ]
          ]
        ],
        "type": "Polygon"
      },
      "properties": {
        "name": "Alpes de Haute Provence (04"
      },
      "id": "QxMDE"
    },
    {
      "type": "Feature",
      "geometry": {
        "coordinates": [
          [
            [
              5.110016,
              43.865446
            ],
            [
              5.370941,
              43.905026
            ],
            [
              5.627747,
              43.873364
            ],
            [
              5.740356,
              43.821878
            ],
            [
              5.726624,
              43.72175
            ],
            [
              5.294037,
              43.725719
            ],
            [
              5.112762,
              43.784226
            ],
            [
              5.110016,
              43.865446
            ]
          ]
        ],
        "type": "Polygon"
      },
      "properties": {
        "name": "Alpilles"
      },
      "id": "g2NjU"
    },
    {
      "type": "Feature",
      "geometry": {
        "coordinates": [
          [
            [
              4.670563,
              43.83182
            ],
            [
              5.063324,
              43.869442
            ],
            [
              5.111389,
              43.74857
            ],
            [
              5.210266,
              43.683079
            ],
            [
              5.145721,
              43.621491
            ],
            [
              4.76944,
              43.673149
            ],
            [
              4.64447,
              43.762453
            ],
            [
              4.66301,
              43.817686
            ],
            [
              4.670563,
              43.83182
            ]
          ]
        ],
        "type": "Polygon"
      },
      "properties": {
        "name": "Alpilles"
      },
      "id": "E2Nzk"
    },
    {
      "type": "Feature",
      "geometry": {
        "coordinates": [
          [
            [
              6.389923,
              45.844061
            ],
            [
              6.485367,
              45.85219
            ],
            [
              6.617203,
              45.975408
            ],
            [
              6.610336,
              46.002117
            ],
            [
              6.59935,
              46.026906
            ],
            [
              6.570511,
              46.025
            ],
            [
              6.389923,
              45.844061
            ]
          ]
        ],
        "type": "Polygon"
      },
      "properties": {
        "name": "Aravis"
      },
      "id": "Y1OTQ"
    },
    {
      "type": "Feature",
      "geometry": {
        "coordinates": [
          [
            [
              4.86969,
              44.908387
            ],
            [
              4.86145,
              44.98229
            ],
            [
              4.796906,
              45.259422
            ],
            [
              4.770813,
              45.342494
            ],
            [
              4.475555,
              45.200565
            ],
            [
              4.367065,
              45.028111
            ],
            [
              4.22081,
              44.944971
            ],
            [
              4.178238,
              44.88372
            ],
            [
              4.071808,
              44.84869
            ],
            [
              3.98941,
              44.801951
            ],
            [
              3.863068,
              44.727869
            ],
            [
              3.874741,
              44.640507
            ],
            [
              3.957825,
              44.520744
            ],
            [
              3.969841,
              44.499734
            ],
            [
              3.979368,
              44.45564
            ],
            [
              3.997993,
              44.438332
            ],
            [
              4.028893,
              44.426323
            ],
            [
              4.034729,
              44.400335
            ],
            [
              4.059448,
              44.383299
            ],
            [
              4.040909,
              44.346984
            ],
            [
              4.051895,
              44.300331
            ],
            [
              4.137726,
              44.305735
            ],
            [
              4.202957,
              44.272813
            ],
            [
              4.256516,
              44.24774
            ],
            [
              4.295654,
              44.297875
            ],
            [
              4.536667,
              44.290445
            ],
            [
              4.606018,
              44.265931
            ],
            [
              4.638977,
              44.250199
            ],
            [
              4.655457,
              44.38376
            ],
            [
              4.690132,
              44.432553
            ],
            [
              4.682236,
              44.490365
            ],
            [
              4.770126,
              44.646721
            ],
            [
              4.86969,
              44.908387
            ]
          ]
        ],
        "type": "Polygon"
      },
      "properties": {
        "name": "Ardèche"
      },
      "id": "czMTI"
    },
    {
      "type": "Feature",
      "geometry": {
        "coordinates": [
          [
            [
              0.860367,
              42.826298
            ],
            [
              0.834618,
              42.92188
            ],
            [
              0.877533,
              42.957811
            ],
            [
              1.013832,
              43.010538
            ],
            [
              0.984993,
              43.075173
            ],
            [
              1.067734,
              43.138821
            ],
            [
              1.176224,
              43.133311
            ],
            [
              1.227036,
              43.085452
            ],
            [
              1.309433,
              43.127554
            ],
            [
              1.224289,
              43.16863
            ],
            [
              1.373291,
              43.220676
            ],
            [
              1.310806,
              43.277676
            ],
            [
              1.358185,
              43.313648
            ],
            [
              1.430969,
              43.242683
            ],
            [
              1.463928,
              43.210671
            ],
            [
              1.639023,
              43.247183
            ],
            [
              1.690521,
              43.281174
            ],
            [
              1.757126,
              43.170633
            ],
            [
              1.851196,
              43.1481
            ],
            [
              1.9487,
              43.11654
            ],
            [
              1.968613,
              43.045345
            ],
            [
              2.000198,
              42.960002
            ],
            [
              1.984406,
              42.871523
            ],
            [
              1.878662,
              42.853211
            ],
            [
              1.877804,
              42.839622
            ],
            [
              1.864586,
              42.829303
            ],
            [
              1.864071,
              42.818226
            ],
            [
              1.892567,
              42.811554
            ],
            [
              1.928444,
              42.775023
            ],
            [
              1.991959,
              42.735205
            ],
            [
              2.086029,
              42.751841
            ],
            [
              2.142334,
              42.713773
            ],
            [
              2.17598,
              42.682242
            ],
            [
              2.166367,
              42.665587
            ],
            [
              2.006035,
              42.665082
            ],
            [
              1.965866,
              42.619637
            ],
            [
              1.929131,
              42.610038
            ],
            [
              1.783905,
              42.580982
            ],
            [
              1.71833,
              42.497021
            ],
            [
              1.654129,
              42.466393
            ],
            [
              1.547012,
              42.437776
            ],
            [
              1.411057,
              42.485885
            ],
            [
              1.466331,
              42.51195
            ],
            [
              1.429939,
              42.606249
            ],
            [
              1.351318,
              42.719006
            ],
            [
              1.143951,
              42.727074
            ],
            [
              0.860367,
              42.826298
            ]
          ]
        ],
        "type": "Polygon"
      },
      "properties": {
        "name": "Ariège"
      },
      "id": "g2NzA"
    },
    {
      "type": "Feature",
      "geometry": {
        "coordinates": [
          [
            [
              6.765862,
              45.929399
            ],
            [
              6.767921,
              45.884739
            ],
            [
              6.898727,
              45.844825
            ],
            [
              6.944389,
              45.881394
            ],
            [
              6.948509,
              45.915074
            ],
            [
              6.970825,
              45.99048
            ],
            [
              6.986618,
              46.072451
            ],
            [
              6.902504,
              46.072451
            ],
            [
              6.765862,
              45.929399
            ]
          ]
        ],
        "type": "Polygon"
      },
      "properties": {
        "name": "Autour de Chamonix"
      },
      "id": "A3NTk"
    },
    {
      "type": "Feature",
      "geometry": {
        "coordinates": [
          [
            [
              2.046204,
              49.036139
            ],
            [
              2.39502,
              49.007267
            ],
            [
              2.172546,
              48.621916
            ],
            [
              1.878662,
              48.717911
            ],
            [
              2.046204,
              49.036139
            ]
          ]
        ],
        "type": "Polygon"
      },
      "properties": {
        "name": "Autour de Paris"
      },
      "id": "U1OTc"
    },
    {
      "type": "Feature",
      "geometry": {
        "coordinates": [
          [
            [
              5.758209,
              43.100987
            ],
            [
              6.182556,
              43.057492
            ],
            [
              6.141357,
              43.186368
            ],
            [
              5.913391,
              43.268396
            ],
            [
              5.72113,
              43.257184
            ],
            [
              5.758209,
              43.100987
            ]
          ]
        ],
        "type": "Polygon"
      },
      "properties": {
        "name": "Autour de Toulon"
      },
      "id": "U2MzU"
    },
    {
      "type": "Feature",
      "geometry": {
        "coordinates": [
          [
            [
              6.024628,
              47.686798
            ],
            [
              6.28418,
              47.67016
            ],
            [
              6.218262,
              47.528519
            ],
            [
              5.965576,
              47.548909
            ],
            [
              6.024628,
              47.686798
            ]
          ]
        ],
        "type": "Polygon"
      },
      "properties": {
        "name": "Autour de Vesoul"
      },
      "id": "c4MDQ"
    },
    {
      "type": "Feature",
      "geometry": {
        "coordinates": [
          [
            [
              3.565063,
              47.86451
            ],
            [
              4.768066,
              47.513326
            ],
            [
              4.792786,
              47.408539
            ],
            [
              4.681549,
              47.262464
            ],
            [
              4.353333,
              46.890396
            ],
            [
              3.798523,
              47.047787
            ],
            [
              3.44696,
              47.455952
            ],
            [
              3.565063,
              47.86451
            ]
          ]
        ],
        "type": "Polygon"
      },
      "properties": {
        "name": "Autour du Morvan"
      },
      "id": "AzMDU"
    },
    {
      "type": "Feature",
      "geometry": {
        "coordinates": [
          [
            [
              5.732117,
              45.780978
            ],
            [
              5.601654,
              45.672765
            ],
            [
              5.635986,
              45.534453
            ],
            [
              5.767822,
              45.539467
            ],
            [
              5.869446,
              45.564463
            ],
            [
              5.817261,
              45.66205
            ],
            [
              5.830994,
              45.719957
            ],
            [
              5.732117,
              45.780978
            ]
          ]
        ],
        "type": "Polygon"
      },
      "properties": {
        "name": "Avant pays savoyard"
      },
      "id": "k4Njc"
    },
    {
      "type": "Feature",
      "geometry": {
        "coordinates": [
          [
            [
              4.962387,
              44.144372
            ],
            [
              5.235672,
              44.116288
            ],
            [
              5.532303,
              44.172443
            ],
            [
              5.565948,
              44.266407
            ],
            [
              5.452652,
              44.453885
            ],
            [
              5.081177,
              44.487685
            ],
            [
              4.910889,
              44.458295
            ],
            [
              4.85321,
              44.38868
            ],
            [
              4.962387,
              44.144372
            ]
          ]
        ],
        "type": "Polygon"
      },
      "properties": {
        "name": "Baronnies - Ventoux"
      },
      "id": "AxNDQ"
    },
    {
      "type": "Feature",
      "geometry": {
        "coordinates": [
          [
            [
              6.06102,
              45.77418
            ],
            [
              6.183929,
              45.764603
            ],
            [
              6.336365,
              45.666383
            ],
            [
              6.210709,
              45.644757
            ],
            [
              6.172256,
              45.647636
            ],
            [
              6.039734,
              45.759814
            ],
            [
              6.06102,
              45.77418
            ]
          ]
        ],
        "type": "Polygon"
      },
      "properties": {
        "name": "Bauges centre"
      },
      "id": "UyMDg"
    },
    {
      "type": "Feature",
      "geometry": {
        "coordinates": [
          [
            [
              6.624413,
              45.926115
            ],
            [
              6.7202,
              45.90128
            ],
            [
              6.764145,
              45.861856
            ],
            [
              6.803284,
              45.776382
            ],
            [
              6.804657,
              45.649844
            ],
            [
              6.622009,
              45.595113
            ],
            [
              6.483307,
              45.728485
            ],
            [
              6.47644,
              45.815628
            ],
            [
              6.624413,
              45.926115
            ]
          ]
        ],
        "type": "Polygon"
      },
      "properties": {
        "name": "Beaufortain"
      },
      "id": "M4MTI"
    },
    {
      "type": "Feature",
      "geometry": {
        "coordinates": [
          [
            [
              5.754776,
              45.078855
            ],
            [
              5.791168,
              45.058571
            ],
            [
              5.888329,
              45.087095
            ],
            [
              5.905495,
              45.103821
            ],
            [
              5.96077,
              45.148647
            ],
            [
              6.109085,
              45.269542
            ],
            [
              6.207275,
              45.48505
            ],
            [
              6.146851,
              45.490825
            ],
            [
              5.917511,
              45.192648
            ],
            [
              5.754776,
              45.078855
            ]
          ]
        ],
        "type": "Polygon"
      },
      "properties": {
        "name": "Belledonne"
      },
      "id": "UyMDI"
    },
    {
      "type": "Feature",
      "geometry": {
        "coordinates": [
          [
            [
              6.190109,
              45.944
            ],
            [
              6.247787,
              45.891469
            ],
            [
              6.352158,
              45.888602
            ],
            [
              6.467514,
              45.96309
            ],
            [
              6.544418,
              46.013646
            ],
            [
              6.563644,
              46.030753
            ],
            [
              6.541328,
              46.052671
            ],
            [
              6.494293,
              46.064818
            ],
            [
              6.409836,
              46.071009
            ],
            [
              6.363487,
              46.064342
            ],
            [
              6.313019,
              46.03892
            ],
            [
              6.190109,
              45.944
            ]
          ]
        ],
        "type": "Polygon"
      },
      "properties": {
        "name": "Bornes"
      },
      "id": "UwNzE"
    },
    {
      "type": "Feature",
      "geometry": {
        "coordinates": [
          [
            [
              -2.49939,
              47.443056
            ],
            [
              -1.246948,
              47.809465
            ],
            [
              -0.983276,
              48.052312
            ],
            [
              -1.054688,
              48.50185
            ],
            [
              -1.516113,
              48.658072
            ],
            [
              -3.345337,
              49.019515
            ],
            [
              -5.306396,
              48.490932
            ],
            [
              -4.520874,
              47.746729
            ],
            [
              -2.49939,
              47.443056
            ]
          ]
        ],
        "type": "Polygon"
      },
      "properties": {
        "name": "Bretagne"
      },
      "id": "Y5NDA"
    },
    {
      "type": "Feature",
      "geometry": {
        "coordinates": [
          [
            [
              6.528282,
              44.611735
            ],
            [
              6.38031,
              44.846827
            ],
            [
              6.401253,
              45.059208
            ],
            [
              6.650848,
              45.087099
            ],
            [
              6.788177,
              44.719459
            ],
            [
              7.021637,
              44.732103
            ],
            [
              7.042236,
              44.632519
            ],
            [
              6.528282,
              44.611735
            ]
          ]
        ],
        "type": "Polygon"
      },
      "properties": {
        "name": "Briançonnais & Queyras"
      },
      "id": "I4NTM"
    },
    {
      "type": "Feature",
      "geometry": {
        "coordinates": [
          [
            [
              5.169067,
              45.821364
            ],
            [
              5.298157,
              45.696845
            ],
            [
              5.52063,
              45.696845
            ],
            [
              5.696411,
              45.779251
            ],
            [
              5.762329,
              45.930329
            ],
            [
              5.660706,
              46.092423
            ],
            [
              5.506897,
              46.233154
            ],
            [
              5.213013,
              46.233154
            ],
            [
              5.169067,
              45.821364
            ]
          ]
        ],
        "type": "Polygon"
      },
      "properties": {
        "name": "Bugey"
      },
      "id": "IzNTE"
    },
    {
      "type": "Feature",
      "geometry": {
        "coordinates": [
          [
            [
              4.702148,
              49.997773
            ],
            [
              3.768311,
              48.786146
            ],
            [
              5.383301,
              47.706184
            ],
            [
              5.652466,
              48.133118
            ],
            [
              5.663452,
              48.203885
            ],
            [
              4.833984,
              48.688359
            ],
            [
              5.31189,
              49.810314
            ],
            [
              4.702148,
              49.997773
            ]
          ]
        ],
        "type": "Polygon"
      },
      "properties": {
        "name": "Champagne Ardennes"
      },
      "id": "QxODY"
    },
    {
      "type": "Feature",
      "geometry": {
        "coordinates": [
          [
            [
              5.862579,
              45.530664
            ],
            [
              5.983429,
              45.496992
            ],
            [
              6.008148,
              45.416099
            ],
            [
              5.902405,
              45.280053
            ],
            [
              5.769196,
              45.206587
            ],
            [
              5.690918,
              45.261695
            ],
            [
              5.653839,
              45.362106
            ],
            [
              5.648346,
              45.423808
            ],
            [
              5.862579,
              45.530664
            ]
          ]
        ],
        "type": "Polygon"
      },
      "properties": {
        "name": "Chartreuse"
      },
      "id": "U3MzQ"
    },
    {
      "type": "Feature",
      "geometry": {
        "coordinates": [
          [
            [
              5.696411,
              44.740751
            ],
            [
              5.976563,
              44.789489
            ],
            [
              6.083679,
              44.620771
            ],
            [
              5.94635,
              44.555173
            ],
            [
              5.758209,
              44.533647
            ],
            [
              5.662079,
              44.620682
            ],
            [
              5.696411,
              44.740751
            ]
          ]
        ],
        "type": "Polygon"
      },
      "properties": {
        "name": "Dévoluy"
      },
      "id": "EwNTA"
    },
    {
      "type": "Feature",
      "geometry": {
        "coordinates": [
          [
            [
              6.391296,
              44.527834
            ],
            [
              6.508026,
              44.561102
            ],
            [
              6.352844,
              44.833377
            ],
            [
              6.361084,
              45.001565
            ],
            [
              6.366577,
              45.034233
            ],
            [
              6.28521,
              45.028905
            ],
            [
              6.035957,
              45.047335
            ],
            [
              5.95665,
              45.116651
            ],
            [
              5.908928,
              45.098959
            ],
            [
              5.821381,
              45.035531
            ],
            [
              5.706024,
              44.930656
            ],
            [
              5.763702,
              44.847006
            ],
            [
              6.06308,
              44.810006
            ],
            [
              6.109772,
              44.667627
            ],
            [
              6.391296,
              44.527834
            ]
          ]
        ],
        "type": "Polygon"
      },
      "properties": {
        "name": "Ecrins (Ouest et Nord)"
      },
      "id": "MxNDU"
    },
    {
      "type": "Feature",
      "geometry": {
        "coordinates": [
          [
            [
              4.582672,
              46.888393
            ],
            [
              4.806519,
              46.887455
            ],
            [
              5.229492,
              47.364834
            ],
            [
              4.866943,
              47.442888
            ],
            [
              4.693909,
              47.240107
            ],
            [
              4.582672,
              46.888393
            ]
          ]
        ],
        "type": "Polygon"
      },
      "properties": {
        "name": "Entre Châlon et Dijon"
      },
      "id": "QwMjI"
    },
    {
      "type": "Feature",
      "geometry": {
        "coordinates": [
          [
            [
              6.002655,
              44.518986
            ],
            [
              5.618134,
              44.457282
            ],
            [
              5.662079,
              44.231462
            ],
            [
              5.749969,
              44.168471
            ],
            [
              6.043854,
              44.03335
            ],
            [
              6.009521,
              44.503367
            ],
            [
              6.002655,
              44.518986
            ]
          ]
        ],
        "type": "Polygon"
      },
      "properties": {
        "name": "Entre Gap et Sisteron"
      },
      "id": "Y0MTA"
    },
    {
      "type": "Feature",
      "geometry": {
        "coordinates": [
          [
            [
              4.627991,
              46.82238
            ],
            [
              4.913635,
              46.812985
            ],
            [
              4.839478,
              46.255772
            ],
            [
              4.850464,
              45.821194
            ],
            [
              4.680176,
              45.853714
            ],
            [
              4.369812,
              46.460432
            ],
            [
              4.627991,
              46.82238
            ]
          ]
        ],
        "type": "Polygon"
      },
      "properties": {
        "name": "Entre Lyon et Chalon"
      },
      "id": "c4NzQ"
    },
    {
      "type": "Feature",
      "geometry": {
        "coordinates": [
          [
            [
              4.949341,
              43.609625
            ],
            [
              5.254211,
              43.583774
            ],
            [
              5.320129,
              43.322657
            ],
            [
              4.979553,
              43.29968
            ],
            [
              4.949341,
              43.609625
            ]
          ]
        ],
        "type": "Polygon"
      },
      "properties": {
        "name": "Estaque / Etant de Berre"
      },
      "id": "QyNzM"
    },
    {
      "type": "Feature",
      "geometry": {
        "coordinates": [
          [
            [
              2.17804,
              48.547912
            ],
            [
              2.249451,
              48.285486
            ],
            [
              2.735596,
              48.184897
            ],
            [
              2.949829,
              48.34027
            ],
            [
              2.518616,
              48.567903
            ],
            [
              2.17804,
              48.547912
            ]
          ]
        ],
        "type": "Polygon"
      },
      "properties": {
        "name": "Fontainebleau"
      },
      "id": "UwMjM"
    },
    {
      "type": "Feature",
      "geometry": {
        "coordinates": [
          [
            [
              6.102905,
              46.388565
            ],
            [
              6.234741,
              46.162751
            ],
            [
              6.306152,
              46.124682
            ],
            [
              6.119385,
              45.963636
            ],
            [
              6.033554,
              45.878637
            ],
            [
              5.863266,
              45.923063
            ],
            [
              5.907211,
              46.063749
            ],
            [
              6.102905,
              46.388565
            ]
          ]
        ],
        "type": "Polygon"
      },
      "properties": {
        "name": "Genevois"
      },
      "id": "UwMTE"
    },
    {
      "type": "Feature",
      "geometry": {
        "coordinates": [
          [
            [
              6.18187,
              45.236586
            ],
            [
              6.357651,
              45.193065
            ],
            [
              6.305466,
              45.034657
            ],
            [
              6.206589,
              45.037083
            ],
            [
              6.17981,
              45.038538
            ],
            [
              6.04454,
              45.048239
            ],
            [
              6.082306,
              45.16016
            ],
            [
              6.18187,
              45.236586
            ]
          ]
        ],
        "type": "Polygon"
      },
      "properties": {
        "name": "Grandes Rousses & Arves"
      },
      "id": "c3MDI"
    },
    {
      "type": "Feature",
      "geometry": {
        "coordinates": [
          [
            [
              6.332245,
              46.214042
            ],
            [
              6.334991,
              46.127179
            ],
            [
              6.387863,
              46.081488
            ],
            [
              6.48262,
              46.071965
            ],
            [
              6.558838,
              46.069107
            ],
            [
              6.604156,
              46.031471
            ],
            [
              6.629906,
              45.984508
            ],
            [
              6.652222,
              45.922466
            ],
            [
              6.71505,
              45.911004
            ],
            [
              6.758308,
              45.936073
            ],
            [
              6.787148,
              45.963278
            ],
            [
              6.895981,
              46.078815
            ],
            [
              6.917267,
              46.283982
            ],
            [
              6.841736,
              46.415704
            ],
            [
              6.553345,
              46.412865
            ],
            [
              6.317139,
              46.306145
            ],
            [
              6.332245,
              46.214042
            ]
          ]
        ],
        "type": "Polygon"
      },
      "properties": {
        "name": "Haut Giffre & Chablais"
      },
      "id": "c5NTk"
    },
    {
      "type": "Feature",
      "geometry": {
        "coordinates": [
          [
            [
              0.637207,
              43.275863
            ],
            [
              0.760803,
              43.233868
            ],
            [
              0.749817,
              42.876741
            ],
            [
              0.65918,
              42.868692
            ],
            [
              0.639954,
              42.733712
            ],
            [
              0.510864,
              42.77202
            ],
            [
              0.574036,
              42.880765
            ],
            [
              0.64064,
              42.940531
            ],
            [
              0.657806,
              42.955102
            ],
            [
              0.635147,
              42.975195
            ],
            [
              0.629654,
              43.015361
            ],
            [
              0.637207,
              43.275863
            ]
          ]
        ],
        "type": "Polygon"
      },
      "properties": {
        "name": "Haute Garonne"
      },
      "id": "U2OTE"
    },
    {
      "type": "Feature",
      "geometry": {
        "coordinates": [
          [
            [
              4.184418,
              44.906603
            ],
            [
              4.203644,
              44.933337
            ],
            [
              4.311447,
              45.016861
            ],
            [
              4.393845,
              45.276329
            ],
            [
              4.268188,
              45.382031
            ],
            [
              3.205261,
              45.425405
            ],
            [
              3.444214,
              44.988348
            ],
            [
              3.724365,
              44.778232
            ],
            [
              3.938599,
              44.8172
            ],
            [
              4.184418,
              44.906603
            ]
          ]
        ],
        "type": "Polygon"
      },
      "properties": {
        "name": "Haute Loire"
      },
      "id": "Y0MDU"
    },
    {
      "type": "Feature",
      "geometry": {
        "coordinates": [
          [
            [
              0.557556,
              43.076086
            ],
            [
              0.606308,
              43.009863
            ],
            [
              0.601501,
              42.96015
            ],
            [
              0.439453,
              42.809974
            ],
            [
              0.335083,
              42.677356
            ],
            [
              -0.126343,
              42.691485
            ],
            [
              -0.302124,
              42.816487
            ],
            [
              -0.31105,
              42.86059
            ],
            [
              -0.267792,
              42.963152
            ],
            [
              -0.177155,
              43.118178
            ],
            [
              0.557556,
              43.076086
            ]
          ]
        ],
        "type": "Polygon"
      },
      "properties": {
        "name": "Hautes Pyrénées"
      },
      "id": "E4NzI"
    },
    {
      "type": "Feature",
      "geometry": {
        "coordinates": [
          [
            [
              5.754089,
              46.168479
            ],
            [
              5.892792,
              46.086113
            ],
            [
              6.043854,
              46.359247
            ],
            [
              6.091919,
              46.544646
            ],
            [
              6.041107,
              46.649358
            ],
            [
              6.241608,
              46.752927
            ],
            [
              6.409149,
              46.896652
            ],
            [
              7.608032,
              47.515215
            ],
            [
              7.223511,
              47.57269
            ],
            [
              6.115265,
              47.16335
            ],
            [
              5.93399,
              47.111986
            ],
            [
              5.668945,
              46.830943
            ],
            [
              5.509644,
              46.63899
            ],
            [
              5.552216,
              46.39146
            ],
            [
              5.754089,
              46.168479
            ]
          ]
        ],
        "type": "Polygon"
      },
      "properties": {
        "name": "Jura"
      },
      "id": "IzMDc"
    },
    {
      "type": "Feature",
      "geometry": {
        "coordinates": [
          [
            [
              6.174316,
              45.915225
            ],
            [
              6.321945,
              45.838282
            ],
            [
              6.411896,
              45.764106
            ],
            [
              6.324692,
              45.722428
            ],
            [
              6.218948,
              45.765542
            ],
            [
              6.091919,
              45.826803
            ],
            [
              6.054153,
              45.877484
            ],
            [
              6.174316,
              45.915225
            ]
          ]
        ],
        "type": "Polygon"
      },
      "properties": {
        "name": "Lac d'Annecy & Tournette"
      },
      "id": "I1MjA"
    },
    {
      "type": "Feature",
      "geometry": {
        "coordinates": [
          [
            [
              5.806274,
              45.818806
            ],
            [
              5.834427,
              45.727835
            ],
            [
              5.83992,
              45.706267
            ],
            [
              5.835114,
              45.684691
            ],
            [
              5.8461,
              45.646314
            ],
            [
              5.95047,
              45.639115
            ],
            [
              5.996475,
              45.673181
            ],
            [
              5.901031,
              45.828373
            ],
            [
              5.806274,
              45.818806
            ]
          ]
        ],
        "type": "Polygon"
      },
      "properties": {
        "name": "Lac du Bourget"
      },
      "id": "E3MjI"
    },
    {
      "type": "Feature",
      "geometry": {
        "coordinates": [
          [
            [
              5.366821,
              43.247833
            ],
            [
              5.567322,
              43.215825
            ],
            [
              5.62706,
              43.159769
            ],
            [
              5.601654,
              43.145747
            ],
            [
              5.334549,
              43.20832
            ],
            [
              5.366821,
              43.247833
            ]
          ]
        ],
        "type": "Polygon"
      },
      "properties": {
        "name": "Les calanques"
      },
      "id": "M5NzI"
    },
    {
      "type": "Feature",
      "geometry": {
        "coordinates": [
          [
            [
              4.225616,
              45.386415
            ],
            [
              4.016533,
              45.395679
            ],
            [
              3.909073,
              45.413926
            ],
            [
              3.983231,
              45.486642
            ],
            [
              3.913193,
              45.589535
            ],
            [
              3.78685,
              45.67066
            ],
            [
              3.705139,
              45.784706
            ],
            [
              3.730545,
              45.873195
            ],
            [
              3.706512,
              45.966792
            ],
            [
              3.828049,
              45.994936
            ],
            [
              3.810196,
              46.096896
            ],
            [
              3.790283,
              46.20627
            ],
            [
              4.027863,
              46.177759
            ],
            [
              4.22905,
              46.119904
            ],
            [
              4.336166,
              45.919391
            ],
            [
              4.384918,
              45.479339
            ],
            [
              4.225616,
              45.386415
            ]
          ]
        ],
        "type": "Polygon"
      },
      "properties": {
        "name": "Loire (42)"
      },
      "id": "k2MzY"
    },
    {
      "type": "Feature",
      "geometry": {
        "coordinates": [
          [
            [
              5.905151,
              49.529381
            ],
            [
              6.591797,
              49.297149
            ],
            [
              5.718384,
              48.250366
            ],
            [
              5.289917,
              48.65193
            ],
            [
              5.905151,
              49.529381
            ]
          ]
        ],
        "type": "Polygon"
      },
      "properties": {
        "name": "Lorraine"
      },
      "id": "M3ODA"
    },
    {
      "type": "Feature",
      "geometry": {
        "coordinates": [
          [
            [
              6.238861,
              45.44087
            ],
            [
              6.313019,
              45.269144
            ],
            [
              6.424942,
              45.163409
            ],
            [
              6.544418,
              45.161708
            ],
            [
              6.618576,
              45.181551
            ],
            [
              6.821136,
              45.223714
            ],
            [
              6.784058,
              45.268178
            ],
            [
              6.670761,
              45.23725
            ],
            [
              6.557465,
              45.23435
            ],
            [
              6.417389,
              45.287499
            ],
            [
              6.334991,
              45.371471
            ],
            [
              6.307526,
              45.441351
            ],
            [
              6.238861,
              45.44087
            ]
          ]
        ],
        "type": "Polygon"
      },
      "properties": {
        "name": "Maurienne"
      },
      "id": "UzNzM"
    },
    {
      "type": "Feature",
      "geometry": {
        "coordinates": [
          [
            [
              4.766693,
              45.791467
            ],
            [
              4.595718,
              45.780767
            ],
            [
              4.408951,
              45.622082
            ],
            [
              4.597778,
              45.581739
            ],
            [
              4.749527,
              45.742935
            ],
            [
              4.766693,
              45.791467
            ]
          ]
        ],
        "type": "Polygon"
      },
      "properties": {
        "name": "Monts du Lyonnais"
      },
      "id": "I1MTA"
    },
    {
      "type": "Feature",
      "geometry": {
        "coordinates": [
          [
            [
              -1.61499,
              48.731528
            ],
            [
              -0.758057,
              48.542821
            ],
            [
              -0.274658,
              48.553727
            ],
            [
              1.2854,
              48.829231
            ],
            [
              1.549072,
              49.31848
            ],
            [
              1.373291,
              49.639601
            ],
            [
              -2.081909,
              49.827721
            ],
            [
              -1.61499,
              48.731528
            ]
          ]
        ],
        "type": "Polygon"
      },
      "properties": {
        "name": "Normandie"
      },
      "id": "Y4NDI"
    },
    {
      "type": "Feature",
      "geometry": {
        "coordinates": [
          [
            [
              2.287903,
              49.289589
            ],
            [
              2.441711,
              49.162271
            ],
            [
              3.617249,
              49.111971
            ],
            [
              4.224243,
              49.947572
            ],
            [
              4.158325,
              50.042944
            ],
            [
              2.175293,
              49.404664
            ],
            [
              2.287903,
              49.289589
            ]
          ]
        ],
        "type": "Polygon"
      },
      "properties": {
        "name": "Picardie"
      },
      "id": "c1MTU"
    },
    {
      "type": "Feature",
      "geometry": {
        "coordinates": [
          [
            [
              4.5401,
              45.48495
            ],
            [
              4.380798,
              45.388914
            ],
            [
              4.581299,
              45.36191
            ],
            [
              4.667816,
              45.434212
            ],
            [
              4.5401,
              45.48495
            ]
          ]
        ],
        "type": "Polygon"
      },
      "properties": {
        "name": "Pilat"
      },
      "id": "E1NTk"
    },
    {
      "type": "Feature",
      "geometry": {
        "coordinates": [
          [
            [
              5.582428,
              45.175982
            ],
            [
              5.577278,
              45.167318
            ],
            [
              5.52578,
              45.12476
            ],
            [
              5.434113,
              45.02684
            ],
            [
              5.352058,
              44.98413
            ],
            [
              5.290947,
              44.925351
            ],
            [
              5.294724,
              44.887915
            ],
            [
              5.494537,
              44.853799
            ],
            [
              5.546036,
              45.023381
            ],
            [
              5.589294,
              45.03939
            ],
            [
              5.61676,
              45.091268
            ],
            [
              5.657272,
              45.160526
            ],
            [
              5.630493,
              45.180852
            ],
            [
              5.582428,
              45.175982
            ]
          ]
        ],
        "type": "Polygon"
      },
      "properties": {
        "name": "Plateau du Vercors"
      },
      "id": "gxNDQ"
    },
    {
      "type": "Feature",
      "geometry": {
        "coordinates": [
          [
            [
              -0.31723,
              42.829815
            ],
            [
              -0.32135,
              42.881143
            ],
            [
              -0.290451,
              42.964585
            ],
            [
              -0.192261,
              43.154291
            ],
            [
              -1.609497,
              43.38977
            ],
            [
              -1.658936,
              43.229931
            ],
            [
              -1.241455,
              42.993401
            ],
            [
              -0.368042,
              42.780146
            ],
            [
              -0.31723,
              42.829815
            ]
          ]
        ],
        "type": "Polygon"
      },
      "properties": {
        "name": "Pyrénées Atlantiques"
      },
      "id": "Y3MTk"
    },
    {
      "type": "Feature",
      "geometry": {
        "coordinates": [
          [
            [
              3.03772,
              42.63194
            ],
            [
              3.163376,
              42.436172
            ],
            [
              2.643585,
              42.339384
            ],
            [
              2.473297,
              42.338369
            ],
            [
              2.313995,
              42.426596
            ],
            [
              2.140961,
              42.41342
            ],
            [
              1.722107,
              42.495469
            ],
            [
              1.786652,
              42.57741
            ],
            [
              1.934967,
              42.60571
            ],
            [
              1.971359,
              42.618558
            ],
            [
              1.998825,
              42.660723
            ],
            [
              2.108688,
              42.667285
            ],
            [
              2.191601,
              42.651387
            ],
            [
              2.235374,
              42.674986
            ],
            [
              2.266445,
              42.70425
            ],
            [
              2.358627,
              42.730355
            ],
            [
              2.320862,
              42.837677
            ],
            [
              2.512436,
              42.849751
            ],
            [
              2.632599,
              42.836193
            ],
            [
              2.708817,
              42.834178
            ],
            [
              2.756882,
              42.856315
            ],
            [
              2.848892,
              42.917585
            ],
            [
              3.043213,
              42.839112
            ],
            [
              3.03772,
              42.63194
            ]
          ]
        ],
        "type": "Polygon"
      },
      "properties": {
        "name": "Pyrénées Orientales"
      },
      "id": "U4NjU"
    },
    {
      "type": "Feature",
      "geometry": {
        "coordinates": [
          [
            [
              5.909271,
              45.606428
            ],
            [
              5.929184,
              45.574244
            ],
            [
              6.049347,
              45.506452
            ],
            [
              6.248474,
              45.589043
            ],
            [
              5.994415,
              45.632779
            ],
            [
              5.909271,
              45.606428
            ]
          ]
        ],
        "type": "Polygon"
      },
      "properties": {
        "name": "Sud-Bauges"
      },
      "id": "Y5NDM"
    },
    {
      "type": "Feature",
      "geometry": {
        "coordinates": [
          [
            [
              6.405716,
              45.661089
            ],
            [
              6.437302,
              45.671141
            ],
            [
              6.531372,
              45.514554
            ],
            [
              6.611023,
              45.551563
            ],
            [
              6.786804,
              45.636126
            ],
            [
              6.90834,
              45.6044
            ],
            [
              6.917953,
              45.543857
            ],
            [
              6.954346,
              45.464475
            ],
            [
              6.91658,
              45.457734
            ],
            [
              6.841736,
              45.577999
            ],
            [
              6.757278,
              45.530897
            ],
            [
              6.585617,
              45.497685
            ],
            [
              6.493607,
              45.46928
            ],
            [
              6.405716,
              45.661089
            ]
          ]
        ],
        "type": "Polygon"
      },
      "properties": {
        "name": "Tarentaise"
      },
      "id": "A5NzA"
    },
    {
      "type": "Feature",
      "geometry": {
        "coordinates": [
          [
            [
              5.015945,
              44.748853
            ],
            [
              5.230865,
              44.710326
            ],
            [
              5.275497,
              44.776147
            ],
            [
              5.410767,
              44.779558
            ],
            [
              5.543289,
              44.75519
            ],
            [
              5.63736,
              44.72691
            ],
            [
              5.630493,
              44.690809
            ],
            [
              5.467758,
              44.59166
            ],
            [
              5.350342,
              44.561136
            ],
            [
              5.160828,
              44.594104
            ],
            [
              4.999466,
              44.547158
            ],
            [
              4.915695,
              44.75324
            ],
            [
              5.015945,
              44.748853
            ]
          ]
        ],
        "type": "Polygon"
      },
      "properties": {
        "name": "Vallée de la Drôme & Diois"
      },
      "id": "cwMTA"
    },
    {
      "type": "Feature",
      "geometry": {
        "coordinates": [
          [
            [
              6.374817,
              47.395634
            ],
            [
              5.432739,
              47.213165
            ],
            [
              5.482178,
              47.074965
            ],
            [
              5.759583,
              47.0974
            ],
            [
              6.457214,
              47.332399
            ],
            [
              6.374817,
              47.395634
            ]
          ]
        ],
        "type": "Polygon"
      },
      "properties": {
        "name": "Vallée du Doubs"
      },
      "id": "YzNjU"
    },
    {
      "type": "Feature",
      "geometry": {
        "coordinates": [
          [
            [
              4.884796,
              45.516021
            ],
            [
              4.843597,
              45.160891
            ],
            [
              4.86969,
              45.002063
            ],
            [
              4.905396,
              44.885454
            ],
            [
              4.836731,
              44.745212
            ],
            [
              4.707642,
              44.451944
            ],
            [
              4.726868,
              44.29886
            ],
            [
              4.839478,
              44.287068
            ],
            [
              4.880676,
              44.594853
            ],
            [
              4.960327,
              44.883509
            ],
            [
              4.952087,
              45.234569
            ],
            [
              4.960327,
              45.512326
            ],
            [
              4.884796,
              45.516021
            ]
          ]
        ],
        "type": "Polygon"
      },
      "properties": {
        "name": "Vallée du Rhône"
      },
      "id": "k0NzY"
    },
    {
      "type": "Feature",
      "geometry": {
        "coordinates": [
          [
            [
              5.581055,
              45.315449
            ],
            [
              5.607147,
              45.228967
            ],
            [
              5.679245,
              45.159281
            ],
            [
              5.666885,
              45.118114
            ],
            [
              5.730057,
              45.145919
            ],
            [
              5.748596,
              45.203021
            ],
            [
              5.700531,
              45.242668
            ],
            [
              5.642853,
              45.329443
            ],
            [
              5.581055,
              45.315449
            ]
          ]
        ],
        "type": "Polygon"
      },
      "properties": {
        "name": "Vallées de Grenoble"
      },
      "id": "U2NzA"
    },
    {
      "type": "Feature",
      "geometry": {
        "coordinates": [
          [
            [
              6.542358,
              45.460133
            ],
            [
              6.678314,
              45.48613
            ],
            [
              6.834526,
              45.47364
            ],
            [
              6.92276,
              45.460134
            ],
            [
              7.093048,
              45.378285
            ],
            [
              7.02301,
              45.319304
            ],
            [
              6.848602,
              45.35889
            ],
            [
              6.716766,
              45.323203
            ],
            [
              6.324005,
              45.450464
            ],
            [
              6.542358,
              45.460133
            ]
          ]
        ],
        "type": "Polygon"
      },
      "properties": {
        "name": "Vanoise"
      },
      "id": "g1NjM"
    },
    {
      "type": "Feature",
      "geometry": {
        "coordinates": [
          [
            [
              5.640106,
              45.103089
            ],
            [
              5.602341,
              45.03279
            ],
            [
              5.568008,
              44.999308
            ],
            [
              5.543289,
              44.950261
            ],
            [
              5.53093,
              44.895338
            ],
            [
              5.527496,
              44.816994
            ],
            [
              5.603714,
              44.819429
            ],
            [
              5.652466,
              45.052192
            ],
            [
              5.675125,
              45.10212
            ],
            [
              5.640106,
              45.103089
            ]
          ]
        ],
        "type": "Polygon"
      },
      "properties": {
        "name": "Vercors Est"
      },
      "id": "kwMTE"
    },
    {
      "type": "Feature",
      "geometry": {
        "coordinates": [
          [
            [
              5.483551,
              45.234738
            ],
            [
              5.511017,
              45.190248
            ],
            [
              5.458145,
              45.069149
            ],
            [
              5.254211,
              44.941471
            ],
            [
              5.200653,
              44.818838
            ],
            [
              5.09285,
              44.842793
            ],
            [
              5.125809,
              44.95803
            ],
            [
              5.483551,
              45.234738
            ]
          ]
        ],
        "type": "Polygon"
      },
      "properties": {
        "name": "Vercors Ouest - Royans"
      },
      "id": "kyOTc"
    },
    {
      "type": "Feature",
      "geometry": {
        "coordinates": [
          [
            [
              6.602783,
              43.815177
            ],
            [
              6.164703,
              43.616718
            ],
            [
              5.975189,
              43.673346
            ],
            [
              6.211395,
              43.877555
            ],
            [
              6.547852,
              43.873597
            ],
            [
              6.602783,
              43.815177
            ]
          ]
        ],
        "type": "Polygon"
      },
      "properties": {
        "name": "Verdon"
      },
      "id": "A4MDE"
    },
    {
      "type": "Feature",
      "geometry": {
        "coordinates": [
          [
            [
              7.434998,
              49.090411
            ],
            [
              7.921143,
              49.065231
            ],
            [
              7.833252,
              48.924708
            ],
            [
              7.520142,
              48.569847
            ],
            [
              7.413025,
              48.283788
            ],
            [
              7.259216,
              47.876546
            ],
            [
              7.207031,
              47.782535
            ],
            [
              7.047729,
              47.729001
            ],
            [
              6.893921,
              47.616217
            ],
            [
              6.457214,
              47.69205
            ],
            [
              6.448975,
              47.917047
            ],
            [
              6.369324,
              48.188687
            ],
            [
              7.174072,
              48.783788
            ],
            [
              7.434998,
              49.090411
            ]
          ]
        ],
        "type": "Polygon"
      },
      "properties": {
        "name": "Vosges"
      },
      "id": "YzMDY"
    }
  ]
}