<?xml version="1.0" encoding="UTF-8" ?>
<gpx version="1.1" xmlns:xsi="http://www.w3.org/2001/XMLSchema-instance"
    xmlns="http://www.topografix.com/GPX/1/1"
    xsi:schemaLocation="http://www.topografix.com/GPX/1/1 http://www.topografix.com/GPX/1/1/gpx.xsd"
    creator="Openrunner - https://www.openrunner.com" >
                <wpt lat="45.071409" lon="5.233881">
                        <ele>0</ele>
                        <name><![CDATA[POI Générique]]></name>
                        <desc><![CDATA[Texte]]></desc>
                    <sym>301</sym>
                </wpt>
            
                <wpt lat="45.078515" lon="5.246362">
                        <ele>0</ele>
                        <name><![CDATA[POI Générique]]></name>
                        <desc><![CDATA[Texte]]></desc>
                    <sym>301</sym>
                </wpt>
            
                <wpt lat="45.009385" lon="5.182315">
                        <ele>0</ele>
                        <name><![CDATA[POI Générique]]></name>
                        <desc><![CDATA[Texte]]></desc>
                    <sym>301</sym>
                </wpt>
            	<trk>
	                   <name>GRAVE - St Hilaire - Camping (Rochechinard)-24217927</name>
						<trkseg>
					<trkpt lat="45.071230" lon="5.244500">
						<ele>201</ele>
						<time>2026-05-31T18:29:48Z</time>
					</trkpt>
					<trkpt lat="45.071230" lon="5.244490">
						<ele>201</ele>
						<time>2026-05-31T18:29:48Z</time>
					</trkpt>
					<trkpt lat="45.071210" lon="5.244270">
						<ele>201</ele>
						<time>2026-05-31T18:29:51Z</time>
					</trkpt>
					<trkpt lat="45.071190" lon="5.244040">
						<ele>200</ele>
						<time>2026-05-31T18:29:54Z</time>
					</trkpt>
					<trkpt lat="45.071180" lon="5.243900">
						<ele>201</ele>
						<time>2026-05-31T18:29:56Z</time>
					</trkpt>
					<trkpt lat="45.071160" lon="5.243870">
						<ele>201</ele>
						<time>2026-05-31T18:29:56Z</time>
					</trkpt>
					<trkpt lat="45.071130" lon="5.243850">
						<ele>200</ele>
						<time>2026-05-31T18:29:57Z</time>
					</trkpt>
					<trkpt lat="45.071080" lon="5.243840">
						<ele>200</ele>
						<time>2026-05-31T18:29:58Z</time>
					</trkpt>
					<trkpt lat="45.071000" lon="5.243850">
						<ele>200</ele>
						<time>2026-05-31T18:29:59Z</time>
					</trkpt>
					<trkpt lat="45.069970" lon="5.244080">
						<ele>197</ele>
						<time>2026-05-31T18:30:18Z</time>
					</trkpt>
					<trkpt lat="45.069820" lon="5.244050">
						<ele>196</ele>
						<time>2026-05-31T18:30:20Z</time>
					</trkpt>
					<trkpt lat="45.069750" lon="5.244000">
						<ele>196</ele>
						<time>2026-05-31T18:30:22Z</time>
					</trkpt>
					<trkpt lat="45.069670" lon="5.243980">
						<ele>196</ele>
						<time>2026-05-31T18:30:23Z</time>
					</trkpt>
					<trkpt lat="45.069540" lon="5.243920">
						<ele>195</ele>
						<time>2026-05-31T18:30:26Z</time>
					</trkpt>
					<trkpt lat="45.069310" lon="5.243800">
						<ele>195</ele>
						<time>2026-05-31T18:30:30Z</time>
					</trkpt>
					<trkpt lat="45.069180" lon="5.243750">
						<ele>195</ele>
						<time>2026-05-31T18:30:32Z</time>
					</trkpt>
					<trkpt lat="45.068250" lon="5.243410">
						<ele>183</ele>
						<time>2026-05-31T18:30:49Z</time>
					</trkpt>
					<trkpt lat="45.068180" lon="5.243380">
						<ele>181</ele>
						<time>2026-05-31T18:30:51Z</time>
					</trkpt>
					<trkpt lat="45.065960" lon="5.242560">
						<ele>178</ele>
						<time>2026-05-31T18:31:32Z</time>
					</trkpt>
					<trkpt lat="45.065780" lon="5.242490">
						<ele>181</ele>
						<time>2026-05-31T18:31:35Z</time>
					</trkpt>
					<trkpt lat="45.065580" lon="5.242350">
						<ele>183</ele>
						<time>2026-05-31T18:31:39Z</time>
					</trkpt>
					<trkpt lat="45.065210" lon="5.242030">
						<ele>188</ele>
						<time>2026-05-31T18:31:47Z</time>
					</trkpt>
					<trkpt lat="45.065110" lon="5.241920">
						<ele>189</ele>
						<time>2026-05-31T18:31:49Z</time>
					</trkpt>
					<trkpt lat="45.065070" lon="5.241850">
						<ele>190</ele>
						<time>2026-05-31T18:31:50Z</time>
					</trkpt>
					<trkpt lat="45.064980" lon="5.241610">
						<ele>192</ele>
						<time>2026-05-31T18:31:53Z</time>
					</trkpt>
					<trkpt lat="45.064950" lon="5.241310">
						<ele>195</ele>
						<time>2026-05-31T18:31:57Z</time>
					</trkpt>
					<trkpt lat="45.064930" lon="5.241240">
						<ele>196</ele>
						<time>2026-05-31T18:31:58Z</time>
					</trkpt>
					<trkpt lat="45.064830" lon="5.241310">
						<ele>196</ele>
						<time>2026-05-31T18:32:00Z</time>
					</trkpt>
					<trkpt lat="45.064480" lon="5.241520">
						<ele>196</ele>
						<time>2026-05-31T18:32:07Z</time>
					</trkpt>
					<trkpt lat="45.063820" lon="5.241940">
						<ele>197</ele>
						<time>2026-05-31T18:32:20Z</time>
					</trkpt>
					<trkpt lat="45.063550" lon="5.242110">
						<ele>198</ele>
						<time>2026-05-31T18:32:25Z</time>
					</trkpt>
					<trkpt lat="45.063100" lon="5.242380">
						<ele>195</ele>
						<time>2026-05-31T18:32:34Z</time>
					</trkpt>
					<trkpt lat="45.062970" lon="5.242430">
						<ele>194</ele>
						<time>2026-05-31T18:32:36Z</time>
					</trkpt>
					<trkpt lat="45.062810" lon="5.242450">
						<ele>195</ele>
						<time>2026-05-31T18:32:39Z</time>
					</trkpt>
					<trkpt lat="45.062440" lon="5.242470">
						<ele>197</ele>
						<time>2026-05-31T18:32:46Z</time>
					</trkpt>
					<trkpt lat="45.061730" lon="5.242630">
						<ele>200</ele>
						<time>2026-05-31T18:32:58Z</time>
					</trkpt>
					<trkpt lat="45.061530" lon="5.242660">
						<ele>201</ele>
						<time>2026-05-31T18:33:02Z</time>
					</trkpt>
					<trkpt lat="45.060920" lon="5.242700">
						<ele>208</ele>
						<time>2026-05-31T18:33:13Z</time>
					</trkpt>
					<trkpt lat="45.060750" lon="5.242750">
						<ele>209</ele>
						<time>2026-05-31T18:33:16Z</time>
					</trkpt>
					<trkpt lat="45.060570" lon="5.242850">
						<ele>208</ele>
						<time>2026-05-31T18:33:19Z</time>
					</trkpt>
					<trkpt lat="45.060500" lon="5.242900">
						<ele>207</ele>
						<time>2026-05-31T18:33:21Z</time>
					</trkpt>
					<trkpt lat="45.060410" lon="5.242980">
						<ele>205</ele>
						<time>2026-05-31T18:33:23Z</time>
					</trkpt>
					<trkpt lat="45.060280" lon="5.243140">
						<ele>201</ele>
						<time>2026-05-31T18:33:26Z</time>
					</trkpt>
					<trkpt lat="45.060130" lon="5.243350">
						<ele>195</ele>
						<time>2026-05-31T18:33:29Z</time>
					</trkpt>
					<trkpt lat="45.059980" lon="5.243660">
						<ele>193</ele>
						<time>2026-05-31T18:33:34Z</time>
					</trkpt>
					<trkpt lat="45.059880" lon="5.243840">
						<ele>192</ele>
						<time>2026-05-31T18:33:37Z</time>
					</trkpt>
					<trkpt lat="45.059840" lon="5.243940">
						<ele>191</ele>
						<time>2026-05-31T18:33:38Z</time>
					</trkpt>
					<trkpt lat="45.059810" lon="5.244040">
						<ele>190</ele>
						<time>2026-05-31T18:33:40Z</time>
					</trkpt>
					<trkpt lat="45.059800" lon="5.244160">
						<ele>188</ele>
						<time>2026-05-31T18:33:41Z</time>
					</trkpt>
					<trkpt lat="45.059810" lon="5.244600">
						<ele>185</ele>
						<time>2026-05-31T18:33:47Z</time>
					</trkpt>
					<trkpt lat="45.059790" lon="5.245000">
						<ele>183</ele>
						<time>2026-05-31T18:33:52Z</time>
					</trkpt>
					<trkpt lat="45.059790" lon="5.245460">
						<ele>184</ele>
						<time>2026-05-31T18:33:58Z</time>
					</trkpt>
					<trkpt lat="45.059820" lon="5.245670">
						<ele>183</ele>
						<time>2026-05-31T18:34:00Z</time>
					</trkpt>
					<trkpt lat="45.059920" lon="5.246420">
						<ele>183</ele>
						<time>2026-05-31T18:34:10Z</time>
					</trkpt>
					<trkpt lat="45.059940" lon="5.246510">
						<ele>183</ele>
						<time>2026-05-31T18:34:11Z</time>
					</trkpt>
					<trkpt lat="45.059980" lon="5.246620">
						<ele>183</ele>
						<time>2026-05-31T18:34:13Z</time>
					</trkpt>
					<trkpt lat="45.060020" lon="5.246680">
						<ele>183</ele>
						<time>2026-05-31T18:34:14Z</time>
					</trkpt>
					<trkpt lat="45.060070" lon="5.246760">
						<ele>182</ele>
						<time>2026-05-31T18:34:15Z</time>
					</trkpt>
					<trkpt lat="45.060120" lon="5.246810">
						<ele>181</ele>
						<time>2026-05-31T18:34:16Z</time>
					</trkpt>
					<trkpt lat="45.060110" lon="5.246980">
						<ele>181</ele>
						<time>2026-05-31T18:34:18Z</time>
					</trkpt>
					<trkpt lat="45.060120" lon="5.247110">
						<ele>181</ele>
						<time>2026-05-31T18:34:20Z</time>
					</trkpt>
					<trkpt lat="45.060130" lon="5.247270">
						<ele>181</ele>
						<time>2026-05-31T18:34:22Z</time>
					</trkpt>
					<trkpt lat="45.060120" lon="5.247510">
						<ele>181</ele>
						<time>2026-05-31T18:34:25Z</time>
					</trkpt>
					<trkpt lat="45.060090" lon="5.247680">
						<ele>179</ele>
						<time>2026-05-31T18:34:27Z</time>
					</trkpt>
					<trkpt lat="45.060030" lon="5.247730">
						<ele>179</ele>
						<time>2026-05-31T18:34:28Z</time>
					</trkpt>
					<trkpt lat="45.059780" lon="5.248000">
						<ele>178</ele>
						<time>2026-05-31T18:34:34Z</time>
					</trkpt>
					<trkpt lat="45.059520" lon="5.248040">
						<ele>179</ele>
						<time>2026-05-31T18:34:39Z</time>
					</trkpt>
					<trkpt lat="45.059450" lon="5.248100">
						<ele>179</ele>
						<time>2026-05-31T18:34:40Z</time>
					</trkpt>
					<trkpt lat="45.059350" lon="5.248160">
						<ele>179</ele>
						<time>2026-05-31T18:34:42Z</time>
					</trkpt>
					<trkpt lat="45.059210" lon="5.248150">
						<ele>180</ele>
						<time>2026-05-31T18:34:45Z</time>
					</trkpt>
					<trkpt lat="45.059130" lon="5.248050">
						<ele>182</ele>
						<time>2026-05-31T18:34:46Z</time>
					</trkpt>
					<trkpt lat="45.058950" lon="5.248210">
						<ele>181</ele>
						<time>2026-05-31T18:34:50Z</time>
					</trkpt>
					<trkpt lat="45.058860" lon="5.248320">
						<ele>179</ele>
						<time>2026-05-31T18:34:52Z</time>
					</trkpt>
					<trkpt lat="45.058820" lon="5.248500">
						<ele>178</ele>
						<time>2026-05-31T18:34:55Z</time>
					</trkpt>
					<trkpt lat="45.058810" lon="5.248570">
						<ele>178</ele>
						<time>2026-05-31T18:34:56Z</time>
					</trkpt>
					<trkpt lat="45.058790" lon="5.248730">
						<ele>178</ele>
						<time>2026-05-31T18:34:58Z</time>
					</trkpt>
					<trkpt lat="45.058760" lon="5.248850">
						<ele>178</ele>
						<time>2026-05-31T18:34:59Z</time>
					</trkpt>
					<trkpt lat="45.058670" lon="5.249360">
						<ele>177</ele>
						<time>2026-05-31T18:35:06Z</time>
					</trkpt>
					<trkpt lat="45.058610" lon="5.249590">
						<ele>178</ele>
						<time>2026-05-31T18:35:09Z</time>
					</trkpt>
					<trkpt lat="45.058570" lon="5.249730">
						<ele>179</ele>
						<time>2026-05-31T18:35:11Z</time>
					</trkpt>
					<trkpt lat="45.058110" lon="5.250110">
						<ele>184</ele>
						<time>2026-05-31T18:35:20Z</time>
					</trkpt>
					<trkpt lat="45.057940" lon="5.250180">
						<ele>186</ele>
						<time>2026-05-31T18:35:23Z</time>
					</trkpt>
					<trkpt lat="45.057800" lon="5.250170">
						<ele>187</ele>
						<time>2026-05-31T18:35:26Z</time>
					</trkpt>
					<trkpt lat="45.057250" lon="5.250130">
						<ele>192</ele>
						<time>2026-05-31T18:35:36Z</time>
					</trkpt>
					<trkpt lat="45.057130" lon="5.250140">
						<ele>193</ele>
						<time>2026-05-31T18:35:38Z</time>
					</trkpt>
					<trkpt lat="45.056990" lon="5.250170">
						<ele>195</ele>
						<time>2026-05-31T18:35:40Z</time>
					</trkpt>
					<trkpt lat="45.056380" lon="5.250160">
						<ele>200</ele>
						<time>2026-05-31T18:35:51Z</time>
					</trkpt>
					<trkpt lat="45.055970" lon="5.250220">
						<ele>203</ele>
						<time>2026-05-31T18:35:59Z</time>
					</trkpt>
					<trkpt lat="45.055810" lon="5.250210">
						<ele>205</ele>
						<time>2026-05-31T18:36:01Z</time>
					</trkpt>
					<trkpt lat="45.055640" lon="5.250150">
						<ele>207</ele>
						<time>2026-05-31T18:36:05Z</time>
					</trkpt>
					<trkpt lat="45.055410" lon="5.250110">
						<ele>210</ele>
						<time>2026-05-31T18:36:09Z</time>
					</trkpt>
					<trkpt lat="45.054890" lon="5.250100">
						<ele>216</ele>
						<time>2026-05-31T18:36:18Z</time>
					</trkpt>
					<trkpt lat="45.054500" lon="5.250010">
						<ele>222</ele>
						<time>2026-05-31T18:36:25Z</time>
					</trkpt>
					<trkpt lat="45.054350" lon="5.250040">
						<ele>225</ele>
						<time>2026-05-31T18:36:28Z</time>
					</trkpt>
					<trkpt lat="45.053780" lon="5.250450">
						<ele>234</ele>
						<time>2026-05-31T18:36:39Z</time>
					</trkpt>
					<trkpt lat="45.053400" lon="5.250610">
						<ele>238</ele>
						<time>2026-05-31T18:36:46Z</time>
					</trkpt>
					<trkpt lat="45.053010" lon="5.250980">
						<ele>241</ele>
						<time>2026-05-31T18:36:54Z</time>
					</trkpt>
					<trkpt lat="45.052960" lon="5.251120">
						<ele>242</ele>
						<time>2026-05-31T18:36:56Z</time>
					</trkpt>
					<trkpt lat="45.053070" lon="5.251700">
						<ele>242</ele>
						<time>2026-05-31T18:37:04Z</time>
					</trkpt>
					<trkpt lat="45.053060" lon="5.251830">
						<ele>241</ele>
						<time>2026-05-31T18:37:06Z</time>
					</trkpt>
					<trkpt lat="45.052980" lon="5.252070">
						<ele>240</ele>
						<time>2026-05-31T18:37:09Z</time>
					</trkpt>
					<trkpt lat="45.052850" lon="5.252250">
						<ele>240</ele>
						<time>2026-05-31T18:37:12Z</time>
					</trkpt>
					<trkpt lat="45.051290" lon="5.253180">
						<ele>238</ele>
						<time>2026-05-31T18:37:42Z</time>
					</trkpt>
					<trkpt lat="45.050830" lon="5.253570">
						<ele>240</ele>
						<time>2026-05-31T18:37:52Z</time>
					</trkpt>
					<trkpt lat="45.050520" lon="5.253700">
						<ele>243</ele>
						<time>2026-05-31T18:37:58Z</time>
					</trkpt>
					<trkpt lat="45.050130" lon="5.253670">
						<ele>247</ele>
						<time>2026-05-31T18:38:05Z</time>
					</trkpt>
					<trkpt lat="45.049960" lon="5.253540">
						<ele>251</ele>
						<time>2026-05-31T18:38:08Z</time>
					</trkpt>
					<trkpt lat="45.049770" lon="5.253360">
						<ele>256</ele>
						<time>2026-05-31T18:38:12Z</time>
					</trkpt>
					<trkpt lat="45.049680" lon="5.253350">
						<ele>258</ele>
						<time>2026-05-31T18:38:14Z</time>
					</trkpt>
					<trkpt lat="45.049560" lon="5.253390">
						<ele>259</ele>
						<time>2026-05-31T18:38:16Z</time>
					</trkpt>
					<trkpt lat="45.049420" lon="5.253610">
						<ele>257</ele>
						<time>2026-05-31T18:38:20Z</time>
					</trkpt>
					<trkpt lat="45.049260" lon="5.254050">
						<ele>255</ele>
						<time>2026-05-31T18:38:26Z</time>
					</trkpt>
					<trkpt lat="45.048750" lon="5.254700">
						<ele>257</ele>
						<time>2026-05-31T18:38:38Z</time>
					</trkpt>
					<trkpt lat="45.048380" lon="5.254880">
						<ele>261</ele>
						<time>2026-05-31T18:38:45Z</time>
					</trkpt>
					<trkpt lat="45.048000" lon="5.254890">
						<ele>263</ele>
						<time>2026-05-31T18:38:52Z</time>
					</trkpt>
					<trkpt lat="45.046180" lon="5.254890">
						<ele>266</ele>
						<time>2026-05-31T18:39:24Z</time>
					</trkpt>
					<trkpt lat="45.045540" lon="5.254800">
						<ele>274</ele>
						<time>2026-05-31T18:39:36Z</time>
					</trkpt>
					<trkpt lat="45.045110" lon="5.254630">
						<ele>282</ele>
						<time>2026-05-31T18:39:44Z</time>
					</trkpt>
					<trkpt lat="45.044810" lon="5.254580">
						<ele>287</ele>
						<time>2026-05-31T18:39:49Z</time>
					</trkpt>
					<trkpt lat="45.044420" lon="5.254640">
						<ele>292</ele>
						<time>2026-05-31T18:39:56Z</time>
					</trkpt>
					<trkpt lat="45.043890" lon="5.254780">
						<ele>293</ele>
						<time>2026-05-31T18:40:05Z</time>
					</trkpt>
					<trkpt lat="45.043730" lon="5.254690">
						<ele>295</ele>
						<time>2026-05-31T18:40:09Z</time>
					</trkpt>
					<trkpt lat="45.043530" lon="5.254510">
						<ele>300</ele>
						<time>2026-05-31T18:40:13Z</time>
					</trkpt>
					<trkpt lat="45.043350" lon="5.254450">
						<ele>302</ele>
						<time>2026-05-31T18:40:16Z</time>
					</trkpt>
					<trkpt lat="45.042980" lon="5.254490">
						<ele>300</ele>
						<time>2026-05-31T18:40:23Z</time>
					</trkpt>
					<trkpt lat="45.042610" lon="5.254400">
						<ele>301</ele>
						<time>2026-05-31T18:40:29Z</time>
					</trkpt>
					<trkpt lat="45.042030" lon="5.254240">
						<ele>306</ele>
						<time>2026-05-31T18:40:40Z</time>
					</trkpt>
					<trkpt lat="45.041890" lon="5.254080">
						<ele>310</ele>
						<time>2026-05-31T18:40:43Z</time>
					</trkpt>
					<trkpt lat="45.041790" lon="5.253890">
						<ele>317</ele>
						<time>2026-05-31T18:40:46Z</time>
					</trkpt>
					<trkpt lat="45.041680" lon="5.253740">
						<ele>321</ele>
						<time>2026-05-31T18:40:49Z</time>
					</trkpt>
					<trkpt lat="45.041480" lon="5.253630">
						<ele>323</ele>
						<time>2026-05-31T18:40:53Z</time>
					</trkpt>
					<trkpt lat="45.041110" lon="5.253500">
						<ele>321</ele>
						<time>2026-05-31T18:40:59Z</time>
					</trkpt>
					<trkpt lat="45.041040" lon="5.253430">
						<ele>321</ele>
						<time>2026-05-31T18:41:01Z</time>
					</trkpt>
					<trkpt lat="45.040880" lon="5.253310">
						<ele>321</ele>
						<time>2026-05-31T18:41:04Z</time>
					</trkpt>
					<trkpt lat="45.040380" lon="5.252830">
						<ele>329</ele>
						<time>2026-05-31T18:41:15Z</time>
					</trkpt>
					<trkpt lat="45.040220" lon="5.252720">
						<ele>330</ele>
						<time>2026-05-31T18:41:18Z</time>
					</trkpt>
					<trkpt lat="45.039690" lon="5.252510">
						<ele>330</ele>
						<time>2026-05-31T18:41:28Z</time>
					</trkpt>
					<trkpt lat="45.037870" lon="5.250930">
						<ele>355</ele>
						<time>2026-05-31T18:42:06Z</time>
					</trkpt>
					<trkpt lat="45.037690" lon="5.250750">
						<ele>357</ele>
						<time>2026-05-31T18:42:10Z</time>
					</trkpt>
					<trkpt lat="45.037480" lon="5.250680">
						<ele>355</ele>
						<time>2026-05-31T18:42:14Z</time>
					</trkpt>
					<trkpt lat="45.037140" lon="5.250680">
						<ele>354</ele>
						<time>2026-05-31T18:42:20Z</time>
					</trkpt>
					<trkpt lat="45.036860" lon="5.250570">
						<ele>355</ele>
						<time>2026-05-31T18:42:25Z</time>
					</trkpt>
					<trkpt lat="45.036650" lon="5.250340">
						<ele>357</ele>
						<time>2026-05-31T18:42:29Z</time>
					</trkpt>
					<trkpt lat="45.036520" lon="5.249880">
						<ele>365</ele>
						<time>2026-05-31T18:42:36Z</time>
					</trkpt>
					<trkpt lat="45.036340" lon="5.249670">
						<ele>367</ele>
						<time>2026-05-31T18:42:40Z</time>
					</trkpt>
					<trkpt lat="45.035900" lon="5.249620">
						<ele>365</ele>
						<time>2026-05-31T18:42:48Z</time>
					</trkpt>
					<trkpt lat="45.035540" lon="5.249580">
						<ele>368</ele>
						<time>2026-05-31T18:42:54Z</time>
					</trkpt>
					<trkpt lat="45.035310" lon="5.249650">
						<ele>370</ele>
						<time>2026-05-31T18:42:58Z</time>
					</trkpt>
					<trkpt lat="45.034500" lon="5.251030">
						<ele>375</ele>
						<time>2026-05-31T18:43:21Z</time>
					</trkpt>
					<trkpt lat="45.034270" lon="5.251240">
						<ele>379</ele>
						<time>2026-05-31T18:43:26Z</time>
					</trkpt>
					<trkpt lat="45.033920" lon="5.251350">
						<ele>385</ele>
						<time>2026-05-31T18:43:32Z</time>
					</trkpt>
					<trkpt lat="45.033820" lon="5.251610">
						<ele>386</ele>
						<time>2026-05-31T18:43:36Z</time>
					</trkpt>
					<trkpt lat="45.033880" lon="5.251940">
						<ele>385</ele>
						<time>2026-05-31T18:43:40Z</time>
					</trkpt>
					<trkpt lat="45.034030" lon="5.252910">
						<ele>384</ele>
						<time>2026-05-31T18:43:53Z</time>
					</trkpt>
					<trkpt lat="45.034120" lon="5.253110">
						<ele>385</ele>
						<time>2026-05-31T18:43:56Z</time>
					</trkpt>
					<trkpt lat="45.034240" lon="5.253460">
						<ele>385</ele>
						<time>2026-05-31T18:44:00Z</time>
					</trkpt>
					<trkpt lat="45.034230" lon="5.254150">
						<ele>384</ele>
						<time>2026-05-31T18:44:09Z</time>
					</trkpt>
					<trkpt lat="45.034200" lon="5.254810">
						<ele>380</ele>
						<time>2026-05-31T18:44:17Z</time>
					</trkpt>
					<trkpt lat="45.034210" lon="5.255050">
						<ele>379</ele>
						<time>2026-05-31T18:44:21Z</time>
					</trkpt>
					<trkpt lat="45.034260" lon="5.255260">
						<ele>377</ele>
						<time>2026-05-31T18:44:23Z</time>
					</trkpt>
					<trkpt lat="45.034350" lon="5.255470">
						<ele>377</ele>
						<time>2026-05-31T18:44:26Z</time>
					</trkpt>
					<trkpt lat="45.034410" lon="5.255680">
						<ele>375</ele>
						<time>2026-05-31T18:44:29Z</time>
					</trkpt>
					<trkpt lat="45.034430" lon="5.255940">
						<ele>373</ele>
						<time>2026-05-31T18:44:33Z</time>
					</trkpt>
					<trkpt lat="45.034390" lon="5.256270">
						<ele>371</ele>
						<time>2026-05-31T18:44:37Z</time>
					</trkpt>
					<trkpt lat="45.034330" lon="5.256560">
						<ele>369</ele>
						<time>2026-05-31T18:44:41Z</time>
					</trkpt>
					<trkpt lat="45.034260" lon="5.256780">
						<ele>367</ele>
						<time>2026-05-31T18:44:44Z</time>
					</trkpt>
					<trkpt lat="45.034090" lon="5.257030">
						<ele>365</ele>
						<time>2026-05-31T18:44:48Z</time>
					</trkpt>
					<trkpt lat="45.033550" lon="5.257680">
						<ele>355</ele>
						<time>2026-05-31T18:45:01Z</time>
					</trkpt>
					<trkpt lat="45.033480" lon="5.257780">
						<ele>354</ele>
						<time>2026-05-31T18:45:02Z</time>
					</trkpt>
					<trkpt lat="45.033450" lon="5.257860">
						<ele>353</ele>
						<time>2026-05-31T18:45:03Z</time>
					</trkpt>
					<trkpt lat="45.033470" lon="5.257980">
						<ele>352</ele>
						<time>2026-05-31T18:45:05Z</time>
					</trkpt>
					<trkpt lat="45.033550" lon="5.258080">
						<ele>353</ele>
						<time>2026-05-31T18:45:07Z</time>
					</trkpt>
					<trkpt lat="45.033880" lon="5.258250">
						<ele>355</ele>
						<time>2026-05-31T18:45:13Z</time>
					</trkpt>
					<trkpt lat="45.033960" lon="5.258360">
						<ele>355</ele>
						<time>2026-05-31T18:45:15Z</time>
					</trkpt>
					<trkpt lat="45.034030" lon="5.258520">
						<ele>354</ele>
						<time>2026-05-31T18:45:18Z</time>
					</trkpt>
					<trkpt lat="45.034070" lon="5.258690">
						<ele>352</ele>
						<time>2026-05-31T18:45:20Z</time>
					</trkpt>
					<trkpt lat="45.034300" lon="5.259410">
						<ele>348</ele>
						<time>2026-05-31T18:45:30Z</time>
					</trkpt>
					<trkpt lat="45.034320" lon="5.259590">
						<ele>347</ele>
						<time>2026-05-31T18:45:32Z</time>
					</trkpt>
					<trkpt lat="45.034320" lon="5.259750">
						<ele>346</ele>
						<time>2026-05-31T18:45:34Z</time>
					</trkpt>
					<trkpt lat="45.034280" lon="5.259910">
						<ele>345</ele>
						<time>2026-05-31T18:45:36Z</time>
					</trkpt>
					<trkpt lat="45.034130" lon="5.260170">
						<ele>343</ele>
						<time>2026-05-31T18:45:40Z</time>
					</trkpt>
					<trkpt lat="45.033980" lon="5.260430">
						<ele>341</ele>
						<time>2026-05-31T18:45:45Z</time>
					</trkpt>
					<trkpt lat="45.033900" lon="5.260480">
						<ele>340</ele>
						<time>2026-05-31T18:45:46Z</time>
					</trkpt>
					<trkpt lat="45.033820" lon="5.260480">
						<ele>339</ele>
						<time>2026-05-31T18:45:48Z</time>
					</trkpt>
					<trkpt lat="45.033710" lon="5.260440">
						<ele>337</ele>
						<time>2026-05-31T18:45:50Z</time>
					</trkpt>
					<trkpt lat="45.033270" lon="5.260040">
						<ele>333</ele>
						<time>2026-05-31T18:45:59Z</time>
					</trkpt>
					<trkpt lat="45.033190" lon="5.260000">
						<ele>333</ele>
						<time>2026-05-31T18:46:00Z</time>
					</trkpt>
					<trkpt lat="45.033130" lon="5.260010">
						<ele>332</ele>
						<time>2026-05-31T18:46:01Z</time>
					</trkpt>
					<trkpt lat="45.033050" lon="5.260060">
						<ele>331</ele>
						<time>2026-05-31T18:46:03Z</time>
					</trkpt>
					<trkpt lat="45.032980" lon="5.260200">
						<ele>330</ele>
						<time>2026-05-31T18:46:05Z</time>
					</trkpt>
					<trkpt lat="45.032270" lon="5.262240">
						<ele>320</ele>
						<time>2026-05-31T18:46:34Z</time>
					</trkpt>
					<trkpt lat="45.032190" lon="5.262450">
						<ele>320</ele>
						<time>2026-05-31T18:46:37Z</time>
					</trkpt>
					<trkpt lat="45.032110" lon="5.262590">
						<ele>319</ele>
						<time>2026-05-31T18:46:39Z</time>
					</trkpt>
					<trkpt lat="45.032000" lon="5.262750">
						<ele>318</ele>
						<time>2026-05-31T18:46:42Z</time>
					</trkpt>
					<trkpt lat="45.031520" lon="5.263350">
						<ele>316</ele>
						<time>2026-05-31T18:46:53Z</time>
					</trkpt>
					<trkpt lat="45.030120" lon="5.265140">
						<ele>309</ele>
						<time>2026-05-31T18:47:27Z</time>
					</trkpt>
					<trkpt lat="45.029480" lon="5.265980">
						<ele>308</ele>
						<time>2026-05-31T18:47:42Z</time>
					</trkpt>
					<trkpt lat="45.029180" lon="5.266370">
						<ele>307</ele>
						<time>2026-05-31T18:47:50Z</time>
					</trkpt>
					<trkpt lat="45.028690" lon="5.266990">
						<ele>307</ele>
						<time>2026-05-31T18:48:01Z</time>
					</trkpt>
					<trkpt lat="45.028490" lon="5.267280">
						<ele>305</ele>
						<time>2026-05-31T18:48:06Z</time>
					</trkpt>
					<trkpt lat="45.028310" lon="5.267510">
						<ele>302</ele>
						<time>2026-05-31T18:48:11Z</time>
					</trkpt>
					<trkpt lat="45.028220" lon="5.267600">
						<ele>303</ele>
						<time>2026-05-31T18:48:13Z</time>
					</trkpt>
					<trkpt lat="45.028020" lon="5.267730">
						<ele>304</ele>
						<time>2026-05-31T18:48:17Z</time>
					</trkpt>
					<trkpt lat="45.027810" lon="5.267890">
						<ele>305</ele>
						<time>2026-05-31T18:48:21Z</time>
					</trkpt>
					<trkpt lat="45.027720" lon="5.268000">
						<ele>305</ele>
						<time>2026-05-31T18:48:23Z</time>
					</trkpt>
					<trkpt lat="45.027370" lon="5.268680">
						<ele>302</ele>
						<time>2026-05-31T18:48:34Z</time>
					</trkpt>
					<trkpt lat="45.027270" lon="5.268830">
						<ele>301</ele>
						<time>2026-05-31T18:48:36Z</time>
					</trkpt>
					<trkpt lat="45.027100" lon="5.269010">
						<ele>299</ele>
						<time>2026-05-31T18:48:40Z</time>
					</trkpt>
					<trkpt lat="45.026850" lon="5.269150">
						<ele>296</ele>
						<time>2026-05-31T18:48:45Z</time>
					</trkpt>
					<trkpt lat="45.026200" lon="5.269430">
						<ele>295</ele>
						<time>2026-05-31T18:48:57Z</time>
					</trkpt>
					<trkpt lat="45.026090" lon="5.269520">
						<ele>295</ele>
						<time>2026-05-31T18:48:59Z</time>
					</trkpt>
					<trkpt lat="45.025990" lon="5.269640">
						<ele>295</ele>
						<time>2026-05-31T18:49:01Z</time>
					</trkpt>
					<trkpt lat="45.025880" lon="5.269800">
						<ele>295</ele>
						<time>2026-05-31T18:49:04Z</time>
					</trkpt>
					<trkpt lat="45.025760" lon="5.269910">
						<ele>294</ele>
						<time>2026-05-31T18:49:07Z</time>
					</trkpt>
					<trkpt lat="45.025630" lon="5.270010">
						<ele>293</ele>
						<time>2026-05-31T18:49:09Z</time>
					</trkpt>
					<trkpt lat="45.024990" lon="5.270280">
						<ele>291</ele>
						<time>2026-05-31T18:49:21Z</time>
					</trkpt>
					<trkpt lat="45.024780" lon="5.270380">
						<ele>290</ele>
						<time>2026-05-31T18:49:25Z</time>
					</trkpt>
					<trkpt lat="45.024610" lon="5.270510">
						<ele>289</ele>
						<time>2026-05-31T18:49:29Z</time>
					</trkpt>
					<trkpt lat="45.024390" lon="5.270700">
						<ele>288</ele>
						<time>2026-05-31T18:49:33Z</time>
					</trkpt>
					<trkpt lat="45.024050" lon="5.271050">
						<ele>287</ele>
						<time>2026-05-31T18:49:41Z</time>
					</trkpt>
					<trkpt lat="45.023510" lon="5.271630">
						<ele>284</ele>
						<time>2026-05-31T18:49:53Z</time>
					</trkpt>
					<trkpt lat="45.023420" lon="5.271740">
						<ele>283</ele>
						<time>2026-05-31T18:49:55Z</time>
					</trkpt>
					<trkpt lat="45.023260" lon="5.271950">
						<ele>283</ele>
						<time>2026-05-31T18:49:59Z</time>
					</trkpt>
					<trkpt lat="45.022870" lon="5.272590">
						<ele>282</ele>
						<time>2026-05-31T18:50:09Z</time>
					</trkpt>
					<trkpt lat="45.022510" lon="5.273140">
						<ele>280</ele>
						<time>2026-05-31T18:50:19Z</time>
					</trkpt>
					<trkpt lat="45.022310" lon="5.273430">
						<ele>280</ele>
						<time>2026-05-31T18:50:24Z</time>
					</trkpt>
					<trkpt lat="45.022030" lon="5.273780">
						<ele>280</ele>
						<time>2026-05-31T18:50:31Z</time>
					</trkpt>
					<trkpt lat="45.021850" lon="5.274070">
						<ele>278</ele>
						<time>2026-05-31T18:50:35Z</time>
					</trkpt>
					<trkpt lat="45.021720" lon="5.274350">
						<ele>277</ele>
						<time>2026-05-31T18:50:40Z</time>
					</trkpt>
					<trkpt lat="45.021530" lon="5.274710">
						<ele>276</ele>
						<time>2026-05-31T18:50:45Z</time>
					</trkpt>
					<trkpt lat="45.021270" lon="5.275060">
						<ele>276</ele>
						<time>2026-05-31T18:50:52Z</time>
					</trkpt>
					<trkpt lat="45.021050" lon="5.275310">
						<ele>278</ele>
						<time>2026-05-31T18:50:57Z</time>
					</trkpt>
					<trkpt lat="45.020900" lon="5.275520">
						<ele>278</ele>
						<time>2026-05-31T18:51:00Z</time>
					</trkpt>
					<trkpt lat="45.020730" lon="5.275840">
						<ele>279</ele>
						<time>2026-05-31T18:51:05Z</time>
					</trkpt>
					<trkpt lat="45.020480" lon="5.276430">
						<ele>279</ele>
						<time>2026-05-31T18:51:14Z</time>
					</trkpt>
					<trkpt lat="45.020410" lon="5.276680">
						<ele>279</ele>
						<time>2026-05-31T18:51:17Z</time>
					</trkpt>
					<trkpt lat="45.020360" lon="5.277090">
						<ele>277</ele>
						<time>2026-05-31T18:51:23Z</time>
					</trkpt>
					<trkpt lat="45.020320" lon="5.277250">
						<ele>276</ele>
						<time>2026-05-31T18:51:25Z</time>
					</trkpt>
					<trkpt lat="45.020270" lon="5.277370">
						<ele>275</ele>
						<time>2026-05-31T18:51:27Z</time>
					</trkpt>
					<trkpt lat="45.020180" lon="5.277490">
						<ele>273</ele>
						<time>2026-05-31T18:51:29Z</time>
					</trkpt>
					<trkpt lat="45.019920" lon="5.277690">
						<ele>272</ele>
						<time>2026-05-31T18:51:34Z</time>
					</trkpt>
					<trkpt lat="45.019740" lon="5.277820">
						<ele>271</ele>
						<time>2026-05-31T18:51:38Z</time>
					</trkpt>
					<trkpt lat="45.019500" lon="5.278040">
						<ele>270</ele>
						<time>2026-05-31T18:51:43Z</time>
					</trkpt>
					<trkpt lat="45.019450" lon="5.278110">
						<ele>269</ele>
						<time>2026-05-31T18:51:44Z</time>
					</trkpt>
					<trkpt lat="45.019400" lon="5.278230">
						<ele>268</ele>
						<time>2026-05-31T18:51:46Z</time>
					</trkpt>
					<trkpt lat="45.019300" lon="5.278820">
						<ele>266</ele>
						<time>2026-05-31T18:51:53Z</time>
					</trkpt>
					<trkpt lat="45.019250" lon="5.279000">
						<ele>265</ele>
						<time>2026-05-31T18:51:56Z</time>
					</trkpt>
					<trkpt lat="45.019190" lon="5.279180">
						<ele>263</ele>
						<time>2026-05-31T18:51:58Z</time>
					</trkpt>
					<trkpt lat="45.019060" lon="5.279430">
						<ele>265</ele>
						<time>2026-05-31T18:52:02Z</time>
					</trkpt>
					<trkpt lat="45.018990" lon="5.279610">
						<ele>266</ele>
						<time>2026-05-31T18:52:05Z</time>
					</trkpt>
					<trkpt lat="45.018920" lon="5.279920">
						<ele>266</ele>
						<time>2026-05-31T18:52:09Z</time>
					</trkpt>
					<trkpt lat="45.018910" lon="5.280140">
						<ele>266</ele>
						<time>2026-05-31T18:52:12Z</time>
					</trkpt>
					<trkpt lat="45.018800" lon="5.280850">
						<ele>265</ele>
						<time>2026-05-31T18:52:21Z</time>
					</trkpt>
					<trkpt lat="45.018700" lon="5.281380">
						<ele>264</ele>
						<time>2026-05-31T18:52:28Z</time>
					</trkpt>
					<trkpt lat="45.018630" lon="5.281660">
						<ele>262</ele>
						<time>2026-05-31T18:52:31Z</time>
					</trkpt>
					<trkpt lat="45.018570" lon="5.281840">
						<ele>260</ele>
						<time>2026-05-31T18:52:34Z</time>
					</trkpt>
					<trkpt lat="45.018340" lon="5.282310">
						<ele>255</ele>
						<time>2026-05-31T18:52:41Z</time>
					</trkpt>
					<trkpt lat="45.018160" lon="5.282560">
						<ele>254</ele>
						<time>2026-05-31T18:52:46Z</time>
					</trkpt>
					<trkpt lat="45.017780" lon="5.283080">
						<ele>254</ele>
						<time>2026-05-31T18:52:55Z</time>
					</trkpt>
					<trkpt lat="45.017640" lon="5.283200">
						<ele>253</ele>
						<time>2026-05-31T18:52:58Z</time>
					</trkpt>
					<trkpt lat="45.017600" lon="5.283320">
						<ele>253</ele>
						<time>2026-05-31T18:53:00Z</time>
					</trkpt>
					<trkpt lat="45.017440" lon="5.283210">
						<ele>254</ele>
						<time>2026-05-31T18:53:03Z</time>
					</trkpt>
					<trkpt lat="45.016820" lon="5.283590">
						<ele>252</ele>
						<time>2026-05-31T18:53:15Z</time>
					</trkpt>
					<trkpt lat="45.016720" lon="5.283590">
						<ele>252</ele>
						<time>2026-05-31T18:53:17Z</time>
					</trkpt>
					<trkpt lat="45.016630" lon="5.283590">
						<ele>252</ele>
						<time>2026-05-31T18:53:18Z</time>
					</trkpt>
					<trkpt lat="45.016150" lon="5.283450">
						<ele>255</ele>
						<time>2026-05-31T18:53:27Z</time>
					</trkpt>
					<trkpt lat="45.015720" lon="5.283530">
						<ele>254</ele>
						<time>2026-05-31T18:53:35Z</time>
					</trkpt>
					<trkpt lat="45.015590" lon="5.283550">
						<ele>253</ele>
						<time>2026-05-31T18:53:37Z</time>
					</trkpt>
					<trkpt lat="45.015370" lon="5.283530">
						<ele>253</ele>
						<time>2026-05-31T18:53:41Z</time>
					</trkpt>
					<trkpt lat="45.014970" lon="5.283420">
						<ele>254</ele>
						<time>2026-05-31T18:53:48Z</time>
					</trkpt>
					<trkpt lat="45.014850" lon="5.283340">
						<ele>254</ele>
						<time>2026-05-31T18:53:50Z</time>
					</trkpt>
					<trkpt lat="45.014490" lon="5.283050">
						<ele>253</ele>
						<time>2026-05-31T18:53:58Z</time>
					</trkpt>
					<trkpt lat="45.014270" lon="5.282920">
						<ele>253</ele>
						<time>2026-05-31T18:54:02Z</time>
					</trkpt>
					<trkpt lat="45.014000" lon="5.282800">
						<ele>253</ele>
						<time>2026-05-31T18:54:07Z</time>
					</trkpt>
					<trkpt lat="45.013600" lon="5.282980">
						<ele>252</ele>
						<time>2026-05-31T18:54:15Z</time>
					</trkpt>
					<trkpt lat="45.012990" lon="5.283140">
						<ele>250</ele>
						<time>2026-05-31T18:54:26Z</time>
					</trkpt>
					<trkpt lat="45.012610" lon="5.283100">
						<ele>249</ele>
						<time>2026-05-31T18:54:32Z</time>
					</trkpt>
					<trkpt lat="45.012270" lon="5.282900">
						<ele>249</ele>
						<time>2026-05-31T18:54:39Z</time>
					</trkpt>
					<trkpt lat="45.012200" lon="5.282890">
						<ele>249</ele>
						<time>2026-05-31T18:54:40Z</time>
					</trkpt>
					<trkpt lat="45.012110" lon="5.282970">
						<ele>249</ele>
						<time>2026-05-31T18:54:42Z</time>
					</trkpt>
					<trkpt lat="45.012000" lon="5.283010">
						<ele>248</ele>
						<time>2026-05-31T18:54:44Z</time>
					</trkpt>
					<trkpt lat="45.011990" lon="5.283140">
						<ele>248</ele>
						<time>2026-05-31T18:54:46Z</time>
					</trkpt>
					<trkpt lat="45.011920" lon="5.283450">
						<ele>247</ele>
						<time>2026-05-31T18:54:50Z</time>
					</trkpt>
					<trkpt lat="45.011870" lon="5.284420">
						<ele>243</ele>
						<time>2026-05-31T18:55:02Z</time>
					</trkpt>
					<trkpt lat="45.011810" lon="5.284890">
						<ele>241</ele>
						<time>2026-05-31T18:55:08Z</time>
					</trkpt>
					<trkpt lat="45.011750" lon="5.285080">
						<ele>240</ele>
						<time>2026-05-31T18:55:11Z</time>
					</trkpt>
					<trkpt lat="45.011690" lon="5.285340">
						<ele>240</ele>
						<time>2026-05-31T18:55:14Z</time>
					</trkpt>
					<trkpt lat="45.011560" lon="5.285700">
						<ele>240</ele>
						<time>2026-05-31T18:55:19Z</time>
					</trkpt>
					<trkpt lat="45.011460" lon="5.286100">
						<ele>241</ele>
						<time>2026-05-31T18:55:25Z</time>
					</trkpt>
					<trkpt lat="45.011250" lon="5.286960">
						<ele>245</ele>
						<time>2026-05-31T18:55:36Z</time>
					</trkpt>
					<trkpt lat="45.011380" lon="5.287070">
						<ele>245</ele>
						<time>2026-05-31T18:55:39Z</time>
					</trkpt>
					<trkpt lat="45.011440" lon="5.287240">
						<ele>245</ele>
						<time>2026-05-31T18:55:41Z</time>
					</trkpt>
					<trkpt lat="45.011480" lon="5.287260">
						<ele>245</ele>
						<time>2026-05-31T18:55:42Z</time>
					</trkpt>
					<trkpt lat="45.011480" lon="5.287260">
						<ele>245</ele>
						<time>2026-05-31T18:55:42Z</time>
					</trkpt>
					<trkpt lat="45.011600" lon="5.287330">
						<ele>245</ele>
						<time>2026-05-31T18:55:44Z</time>
					</trkpt>
					</trkseg>
				</trk>
			</gpx>