<?xml version="1.0" encoding="UTF-8" ?>
<gpx version="1.1" xmlns:xsi="http://www.w3.org/2001/XMLSchema-instance"
    xmlns="http://www.topografix.com/GPX/1/1"
    xsi:schemaLocation="http://www.topografix.com/GPX/1/1 http://www.topografix.com/GPX/1/1/gpx.xsd"
    creator="Openrunner - https://www.openrunner.com" >	<trk>
	                   <name>GRAVE - St Hilaire - Camping (D76)-24217929</name>
						<trkseg>
					<trkpt lat="45.071230" lon="5.244500">
						<ele>201</ele>
						<time>2026-05-31T18:29:34Z</time>
					</trkpt>
					<trkpt lat="45.071230" lon="5.244490">
						<ele>201</ele>
						<time>2026-05-31T18:29:34Z</time>
					</trkpt>
					<trkpt lat="45.071210" lon="5.244270">
						<ele>201</ele>
						<time>2026-05-31T18:29:37Z</time>
					</trkpt>
					<trkpt lat="45.071190" lon="5.244040">
						<ele>200</ele>
						<time>2026-05-31T18:29:40Z</time>
					</trkpt>
					<trkpt lat="45.071180" lon="5.243900">
						<ele>201</ele>
						<time>2026-05-31T18:29:42Z</time>
					</trkpt>
					<trkpt lat="45.071160" lon="5.243870">
						<ele>201</ele>
						<time>2026-05-31T18:29:42Z</time>
					</trkpt>
					<trkpt lat="45.071130" lon="5.243850">
						<ele>200</ele>
						<time>2026-05-31T18:29:43Z</time>
					</trkpt>
					<trkpt lat="45.071080" lon="5.243840">
						<ele>200</ele>
						<time>2026-05-31T18:29:44Z</time>
					</trkpt>
					<trkpt lat="45.071000" lon="5.243850">
						<ele>200</ele>
						<time>2026-05-31T18:29:45Z</time>
					</trkpt>
					<trkpt lat="45.069970" lon="5.244080">
						<ele>197</ele>
						<time>2026-05-31T18:30:04Z</time>
					</trkpt>
					<trkpt lat="45.069820" lon="5.244050">
						<ele>196</ele>
						<time>2026-05-31T18:30:06Z</time>
					</trkpt>
					<trkpt lat="45.069750" lon="5.244000">
						<ele>196</ele>
						<time>2026-05-31T18:30:08Z</time>
					</trkpt>
					<trkpt lat="45.069670" lon="5.243980">
						<ele>196</ele>
						<time>2026-05-31T18:30:09Z</time>
					</trkpt>
					<trkpt lat="45.069540" lon="5.243920">
						<ele>195</ele>
						<time>2026-05-31T18:30:12Z</time>
					</trkpt>
					<trkpt lat="45.069310" lon="5.243800">
						<ele>195</ele>
						<time>2026-05-31T18:30:16Z</time>
					</trkpt>
					<trkpt lat="45.069180" lon="5.243750">
						<ele>195</ele>
						<time>2026-05-31T18:30:18Z</time>
					</trkpt>
					<trkpt lat="45.068250" lon="5.243410">
						<ele>183</ele>
						<time>2026-05-31T18:30:35Z</time>
					</trkpt>
					<trkpt lat="45.068180" lon="5.243380">
						<ele>181</ele>
						<time>2026-05-31T18:30:37Z</time>
					</trkpt>
					<trkpt lat="45.065960" lon="5.242560">
						<ele>178</ele>
						<time>2026-05-31T18:31:18Z</time>
					</trkpt>
					<trkpt lat="45.065780" lon="5.242490">
						<ele>181</ele>
						<time>2026-05-31T18:31:21Z</time>
					</trkpt>
					<trkpt lat="45.065580" lon="5.242350">
						<ele>183</ele>
						<time>2026-05-31T18:31:25Z</time>
					</trkpt>
					<trkpt lat="45.065210" lon="5.242030">
						<ele>188</ele>
						<time>2026-05-31T18:31:33Z</time>
					</trkpt>
					<trkpt lat="45.065110" lon="5.241920">
						<ele>189</ele>
						<time>2026-05-31T18:31:35Z</time>
					</trkpt>
					<trkpt lat="45.065070" lon="5.241850">
						<ele>190</ele>
						<time>2026-05-31T18:31:36Z</time>
					</trkpt>
					<trkpt lat="45.064980" lon="5.241610">
						<ele>192</ele>
						<time>2026-05-31T18:31:39Z</time>
					</trkpt>
					<trkpt lat="45.064950" lon="5.241310">
						<ele>195</ele>
						<time>2026-05-31T18:31:43Z</time>
					</trkpt>
					<trkpt lat="45.064930" lon="5.241240">
						<ele>196</ele>
						<time>2026-05-31T18:31:44Z</time>
					</trkpt>
					<trkpt lat="45.064830" lon="5.241310">
						<ele>196</ele>
						<time>2026-05-31T18:31:46Z</time>
					</trkpt>
					<trkpt lat="45.064480" lon="5.241520">
						<ele>196</ele>
						<time>2026-05-31T18:31:53Z</time>
					</trkpt>
					<trkpt lat="45.063820" lon="5.241940">
						<ele>197</ele>
						<time>2026-05-31T18:32:06Z</time>
					</trkpt>
					<trkpt lat="45.063550" lon="5.242110">
						<ele>198</ele>
						<time>2026-05-31T18:32:11Z</time>
					</trkpt>
					<trkpt lat="45.063100" lon="5.242380">
						<ele>195</ele>
						<time>2026-05-31T18:32:20Z</time>
					</trkpt>
					<trkpt lat="45.062970" lon="5.242430">
						<ele>194</ele>
						<time>2026-05-31T18:32:22Z</time>
					</trkpt>
					<trkpt lat="45.062810" lon="5.242450">
						<ele>195</ele>
						<time>2026-05-31T18:32:25Z</time>
					</trkpt>
					<trkpt lat="45.062440" lon="5.242470">
						<ele>197</ele>
						<time>2026-05-31T18:32:32Z</time>
					</trkpt>
					<trkpt lat="45.061730" lon="5.242630">
						<ele>200</ele>
						<time>2026-05-31T18:32:44Z</time>
					</trkpt>
					<trkpt lat="45.061530" lon="5.242660">
						<ele>201</ele>
						<time>2026-05-31T18:32:48Z</time>
					</trkpt>
					<trkpt lat="45.060920" lon="5.242700">
						<ele>208</ele>
						<time>2026-05-31T18:32:59Z</time>
					</trkpt>
					<trkpt lat="45.060750" lon="5.242750">
						<ele>209</ele>
						<time>2026-05-31T18:33:02Z</time>
					</trkpt>
					<trkpt lat="45.060570" lon="5.242850">
						<ele>208</ele>
						<time>2026-05-31T18:33:05Z</time>
					</trkpt>
					<trkpt lat="45.060500" lon="5.242900">
						<ele>207</ele>
						<time>2026-05-31T18:33:07Z</time>
					</trkpt>
					<trkpt lat="45.060410" lon="5.242980">
						<ele>205</ele>
						<time>2026-05-31T18:33:09Z</time>
					</trkpt>
					<trkpt lat="45.060280" lon="5.243140">
						<ele>201</ele>
						<time>2026-05-31T18:33:12Z</time>
					</trkpt>
					<trkpt lat="45.060130" lon="5.243350">
						<ele>195</ele>
						<time>2026-05-31T18:33:15Z</time>
					</trkpt>
					<trkpt lat="45.059980" lon="5.243660">
						<ele>193</ele>
						<time>2026-05-31T18:33:20Z</time>
					</trkpt>
					<trkpt lat="45.059880" lon="5.243840">
						<ele>192</ele>
						<time>2026-05-31T18:33:23Z</time>
					</trkpt>
					<trkpt lat="45.059840" lon="5.243940">
						<ele>191</ele>
						<time>2026-05-31T18:33:24Z</time>
					</trkpt>
					<trkpt lat="45.059810" lon="5.244040">
						<ele>190</ele>
						<time>2026-05-31T18:33:26Z</time>
					</trkpt>
					<trkpt lat="45.059800" lon="5.244160">
						<ele>188</ele>
						<time>2026-05-31T18:33:27Z</time>
					</trkpt>
					<trkpt lat="45.059810" lon="5.244600">
						<ele>185</ele>
						<time>2026-05-31T18:33:33Z</time>
					</trkpt>
					<trkpt lat="45.059790" lon="5.245000">
						<ele>183</ele>
						<time>2026-05-31T18:33:38Z</time>
					</trkpt>
					<trkpt lat="45.059790" lon="5.245460">
						<ele>184</ele>
						<time>2026-05-31T18:33:44Z</time>
					</trkpt>
					<trkpt lat="45.059820" lon="5.245670">
						<ele>183</ele>
						<time>2026-05-31T18:33:46Z</time>
					</trkpt>
					<trkpt lat="45.059920" lon="5.246420">
						<ele>183</ele>
						<time>2026-05-31T18:33:56Z</time>
					</trkpt>
					<trkpt lat="45.059940" lon="5.246510">
						<ele>183</ele>
						<time>2026-05-31T18:33:57Z</time>
					</trkpt>
					<trkpt lat="45.059980" lon="5.246620">
						<ele>183</ele>
						<time>2026-05-31T18:33:59Z</time>
					</trkpt>
					<trkpt lat="45.060020" lon="5.246680">
						<ele>183</ele>
						<time>2026-05-31T18:34:00Z</time>
					</trkpt>
					<trkpt lat="45.060070" lon="5.246760">
						<ele>182</ele>
						<time>2026-05-31T18:34:01Z</time>
					</trkpt>
					<trkpt lat="45.060120" lon="5.246810">
						<ele>181</ele>
						<time>2026-05-31T18:34:02Z</time>
					</trkpt>
					<trkpt lat="45.060200" lon="5.246870">
						<ele>181</ele>
						<time>2026-05-31T18:34:04Z</time>
					</trkpt>
					<trkpt lat="45.060350" lon="5.246950">
						<ele>179</ele>
						<time>2026-05-31T18:34:07Z</time>
					</trkpt>
					<trkpt lat="45.060420" lon="5.246980">
						<ele>178</ele>
						<time>2026-05-31T18:34:08Z</time>
					</trkpt>
					<trkpt lat="45.060550" lon="5.247070">
						<ele>177</ele>
						<time>2026-05-31T18:34:10Z</time>
					</trkpt>
					<trkpt lat="45.060550" lon="5.247130">
						<ele>177</ele>
						<time>2026-05-31T18:34:11Z</time>
					</trkpt>
					<trkpt lat="45.060590" lon="5.247300">
						<ele>177</ele>
						<time>2026-05-31T18:34:13Z</time>
					</trkpt>
					<trkpt lat="45.060570" lon="5.247510">
						<ele>177</ele>
						<time>2026-05-31T18:34:16Z</time>
					</trkpt>
					<trkpt lat="45.060550" lon="5.247600">
						<ele>177</ele>
						<time>2026-05-31T18:34:17Z</time>
					</trkpt>
					<trkpt lat="45.060460" lon="5.247940">
						<ele>175</ele>
						<time>2026-05-31T18:34:22Z</time>
					</trkpt>
					<trkpt lat="45.060420" lon="5.248050">
						<ele>174</ele>
						<time>2026-05-31T18:34:23Z</time>
					</trkpt>
					<trkpt lat="45.060230" lon="5.248690">
						<ele>171</ele>
						<time>2026-05-31T18:34:32Z</time>
					</trkpt>
					<trkpt lat="45.060200" lon="5.248760">
						<ele>171</ele>
						<time>2026-05-31T18:34:33Z</time>
					</trkpt>
					<trkpt lat="45.060120" lon="5.248970">
						<ele>170</ele>
						<time>2026-05-31T18:34:36Z</time>
					</trkpt>
					<trkpt lat="45.060010" lon="5.249200">
						<ele>169</ele>
						<time>2026-05-31T18:34:40Z</time>
					</trkpt>
					<trkpt lat="45.059920" lon="5.249340">
						<ele>170</ele>
						<time>2026-05-31T18:34:42Z</time>
					</trkpt>
					<trkpt lat="45.059760" lon="5.249560">
						<ele>171</ele>
						<time>2026-05-31T18:34:46Z</time>
					</trkpt>
					<trkpt lat="45.059650" lon="5.249700">
						<ele>172</ele>
						<time>2026-05-31T18:34:49Z</time>
					</trkpt>
					<trkpt lat="45.059450" lon="5.249900">
						<ele>173</ele>
						<time>2026-05-31T18:34:53Z</time>
					</trkpt>
					<trkpt lat="45.059380" lon="5.249970">
						<ele>174</ele>
						<time>2026-05-31T18:34:55Z</time>
					</trkpt>
					<trkpt lat="45.059120" lon="5.250180">
						<ele>175</ele>
						<time>2026-05-31T18:35:00Z</time>
					</trkpt>
					<trkpt lat="45.059040" lon="5.250260">
						<ele>176</ele>
						<time>2026-05-31T18:35:02Z</time>
					</trkpt>
					<trkpt lat="45.059010" lon="5.250290">
						<ele>176</ele>
						<time>2026-05-31T18:35:02Z</time>
					</trkpt>
					<trkpt lat="45.058620" lon="5.250660">
						<ele>179</ele>
						<time>2026-05-31T18:35:11Z</time>
					</trkpt>
					<trkpt lat="45.058510" lon="5.250780">
						<ele>180</ele>
						<time>2026-05-31T18:35:13Z</time>
					</trkpt>
					<trkpt lat="45.058460" lon="5.250850">
						<ele>180</ele>
						<time>2026-05-31T18:35:14Z</time>
					</trkpt>
					<trkpt lat="45.058410" lon="5.250940">
						<ele>180</ele>
						<time>2026-05-31T18:35:16Z</time>
					</trkpt>
					<trkpt lat="45.058370" lon="5.251080">
						<ele>180</ele>
						<time>2026-05-31T18:35:18Z</time>
					</trkpt>
					<trkpt lat="45.058350" lon="5.251220">
						<ele>180</ele>
						<time>2026-05-31T18:35:20Z</time>
					</trkpt>
					<trkpt lat="45.058290" lon="5.251940">
						<ele>180</ele>
						<time>2026-05-31T18:35:29Z</time>
					</trkpt>
					<trkpt lat="45.058290" lon="5.252310">
						<ele>181</ele>
						<time>2026-05-31T18:35:33Z</time>
					</trkpt>
					<trkpt lat="45.058290" lon="5.252460">
						<ele>181</ele>
						<time>2026-05-31T18:35:35Z</time>
					</trkpt>
					<trkpt lat="45.058350" lon="5.252940">
						<ele>180</ele>
						<time>2026-05-31T18:35:41Z</time>
					</trkpt>
					<trkpt lat="45.058370" lon="5.253230">
						<ele>179</ele>
						<time>2026-05-31T18:35:45Z</time>
					</trkpt>
					<trkpt lat="45.058400" lon="5.254170">
						<ele>176</ele>
						<time>2026-05-31T18:35:57Z</time>
					</trkpt>
					<trkpt lat="45.058380" lon="5.254330">
						<ele>176</ele>
						<time>2026-05-31T18:35:59Z</time>
					</trkpt>
					<trkpt lat="45.058350" lon="5.254450">
						<ele>176</ele>
						<time>2026-05-31T18:36:00Z</time>
					</trkpt>
					<trkpt lat="45.058230" lon="5.254770">
						<ele>175</ele>
						<time>2026-05-31T18:36:05Z</time>
					</trkpt>
					<trkpt lat="45.058140" lon="5.255000">
						<ele>174</ele>
						<time>2026-05-31T18:36:08Z</time>
					</trkpt>
					<trkpt lat="45.058110" lon="5.255080">
						<ele>174</ele>
						<time>2026-05-31T18:36:09Z</time>
					</trkpt>
					<trkpt lat="45.057980" lon="5.255390">
						<ele>175</ele>
						<time>2026-05-31T18:36:14Z</time>
					</trkpt>
					<trkpt lat="45.057790" lon="5.255850">
						<ele>177</ele>
						<time>2026-05-31T18:36:21Z</time>
					</trkpt>
					<trkpt lat="45.057710" lon="5.256070">
						<ele>178</ele>
						<time>2026-05-31T18:36:24Z</time>
					</trkpt>
					<trkpt lat="45.057640" lon="5.256290">
						<ele>179</ele>
						<time>2026-05-31T18:36:27Z</time>
					</trkpt>
					<trkpt lat="45.057610" lon="5.256500">
						<ele>180</ele>
						<time>2026-05-31T18:36:29Z</time>
					</trkpt>
					<trkpt lat="45.057600" lon="5.256680">
						<ele>180</ele>
						<time>2026-05-31T18:36:32Z</time>
					</trkpt>
					<trkpt lat="45.057600" lon="5.257150">
						<ele>180</ele>
						<time>2026-05-31T18:36:38Z</time>
					</trkpt>
					<trkpt lat="45.057640" lon="5.257550">
						<ele>179</ele>
						<time>2026-05-31T18:36:43Z</time>
					</trkpt>
					<trkpt lat="45.057630" lon="5.257630">
						<ele>180</ele>
						<time>2026-05-31T18:36:44Z</time>
					</trkpt>
					<trkpt lat="45.057600" lon="5.257690">
						<ele>180</ele>
						<time>2026-05-31T18:36:45Z</time>
					</trkpt>
					<trkpt lat="45.057550" lon="5.257730">
						<ele>181</ele>
						<time>2026-05-31T18:36:46Z</time>
					</trkpt>
					<trkpt lat="45.057480" lon="5.257730">
						<ele>182</ele>
						<time>2026-05-31T18:36:47Z</time>
					</trkpt>
					<trkpt lat="45.057430" lon="5.257670">
						<ele>184</ele>
						<time>2026-05-31T18:36:48Z</time>
					</trkpt>
					<trkpt lat="45.057400" lon="5.257580">
						<ele>184</ele>
						<time>2026-05-31T18:36:49Z</time>
					</trkpt>
					<trkpt lat="45.057360" lon="5.256960">
						<ele>185</ele>
						<time>2026-05-31T18:36:57Z</time>
					</trkpt>
					<trkpt lat="45.057320" lon="5.256770">
						<ele>185</ele>
						<time>2026-05-31T18:37:00Z</time>
					</trkpt>
					<trkpt lat="45.057240" lon="5.256580">
						<ele>186</ele>
						<time>2026-05-31T18:37:02Z</time>
					</trkpt>
					<trkpt lat="45.057160" lon="5.256460">
						<ele>186</ele>
						<time>2026-05-31T18:37:05Z</time>
					</trkpt>
					<trkpt lat="45.057070" lon="5.256370">
						<ele>187</ele>
						<time>2026-05-31T18:37:06Z</time>
					</trkpt>
					<trkpt lat="45.056930" lon="5.256280">
						<ele>188</ele>
						<time>2026-05-31T18:37:09Z</time>
					</trkpt>
					<trkpt lat="45.056690" lon="5.256250">
						<ele>191</ele>
						<time>2026-05-31T18:37:14Z</time>
					</trkpt>
					<trkpt lat="45.056300" lon="5.256220">
						<ele>192</ele>
						<time>2026-05-31T18:37:20Z</time>
					</trkpt>
					<trkpt lat="45.056150" lon="5.256230">
						<ele>193</ele>
						<time>2026-05-31T18:37:23Z</time>
					</trkpt>
					<trkpt lat="45.056010" lon="5.256260">
						<ele>194</ele>
						<time>2026-05-31T18:37:26Z</time>
					</trkpt>
					<trkpt lat="45.055870" lon="5.256320">
						<ele>195</ele>
						<time>2026-05-31T18:37:28Z</time>
					</trkpt>
					<trkpt lat="45.055730" lon="5.256410">
						<ele>196</ele>
						<time>2026-05-31T18:37:31Z</time>
					</trkpt>
					<trkpt lat="45.055610" lon="5.256520">
						<ele>197</ele>
						<time>2026-05-31T18:37:34Z</time>
					</trkpt>
					<trkpt lat="45.055150" lon="5.257060">
						<ele>199</ele>
						<time>2026-05-31T18:37:44Z</time>
					</trkpt>
					<trkpt lat="45.054700" lon="5.257590">
						<ele>200</ele>
						<time>2026-05-31T18:37:55Z</time>
					</trkpt>
					<trkpt lat="45.054600" lon="5.257730">
						<ele>200</ele>
						<time>2026-05-31T18:37:57Z</time>
					</trkpt>
					<trkpt lat="45.054510" lon="5.257910">
						<ele>200</ele>
						<time>2026-05-31T18:38:00Z</time>
					</trkpt>
					<trkpt lat="45.054430" lon="5.258120">
						<ele>201</ele>
						<time>2026-05-31T18:38:03Z</time>
					</trkpt>
					<trkpt lat="45.054370" lon="5.258390">
						<ele>202</ele>
						<time>2026-05-31T18:38:06Z</time>
					</trkpt>
					<trkpt lat="45.054270" lon="5.259430">
						<ele>204</ele>
						<time>2026-05-31T18:38:20Z</time>
					</trkpt>
					<trkpt lat="45.054240" lon="5.259700">
						<ele>205</ele>
						<time>2026-05-31T18:38:23Z</time>
					</trkpt>
					<trkpt lat="45.054040" lon="5.260550">
						<ele>208</ele>
						<time>2026-05-31T18:38:34Z</time>
					</trkpt>
					<trkpt lat="45.053940" lon="5.260850">
						<ele>210</ele>
						<time>2026-05-31T18:38:38Z</time>
					</trkpt>
					<trkpt lat="45.053780" lon="5.261150">
						<ele>212</ele>
						<time>2026-05-31T18:38:43Z</time>
					</trkpt>
					<trkpt lat="45.053440" lon="5.261690">
						<ele>215</ele>
						<time>2026-05-31T18:38:52Z</time>
					</trkpt>
					<trkpt lat="45.053380" lon="5.261810">
						<ele>216</ele>
						<time>2026-05-31T18:38:54Z</time>
					</trkpt>
					<trkpt lat="45.053330" lon="5.261940">
						<ele>216</ele>
						<time>2026-05-31T18:38:56Z</time>
					</trkpt>
					<trkpt lat="45.053290" lon="5.262080">
						<ele>217</ele>
						<time>2026-05-31T18:38:58Z</time>
					</trkpt>
					<trkpt lat="45.053280" lon="5.262220">
						<ele>218</ele>
						<time>2026-05-31T18:39:00Z</time>
					</trkpt>
					<trkpt lat="45.053270" lon="5.262380">
						<ele>218</ele>
						<time>2026-05-31T18:39:02Z</time>
					</trkpt>
					<trkpt lat="45.053280" lon="5.262560">
						<ele>219</ele>
						<time>2026-05-31T18:39:04Z</time>
					</trkpt>
					<trkpt lat="45.053470" lon="5.263900">
						<ele>219</ele>
						<time>2026-05-31T18:39:21Z</time>
					</trkpt>
					<trkpt lat="45.053530" lon="5.264360">
						<ele>220</ele>
						<time>2026-05-31T18:39:27Z</time>
					</trkpt>
					<trkpt lat="45.053540" lon="5.264550">
						<ele>220</ele>
						<time>2026-05-31T18:39:29Z</time>
					</trkpt>
					<trkpt lat="45.053540" lon="5.264740">
						<ele>220</ele>
						<time>2026-05-31T18:39:32Z</time>
					</trkpt>
					<trkpt lat="45.053520" lon="5.264950">
						<ele>220</ele>
						<time>2026-05-31T18:39:34Z</time>
					</trkpt>
					<trkpt lat="45.053490" lon="5.265150">
						<ele>220</ele>
						<time>2026-05-31T18:39:37Z</time>
					</trkpt>
					<trkpt lat="45.053450" lon="5.265280">
						<ele>220</ele>
						<time>2026-05-31T18:39:39Z</time>
					</trkpt>
					<trkpt lat="45.053430" lon="5.265360">
						<ele>220</ele>
						<time>2026-05-31T18:39:40Z</time>
					</trkpt>
					<trkpt lat="45.053360" lon="5.265500">
						<ele>220</ele>
						<time>2026-05-31T18:39:42Z</time>
					</trkpt>
					<trkpt lat="45.053250" lon="5.265650">
						<ele>220</ele>
						<time>2026-05-31T18:39:45Z</time>
					</trkpt>
					<trkpt lat="45.053090" lon="5.265820">
						<ele>220</ele>
						<time>2026-05-31T18:39:48Z</time>
					</trkpt>
					<trkpt lat="45.052910" lon="5.265980">
						<ele>220</ele>
						<time>2026-05-31T18:39:52Z</time>
					</trkpt>
					<trkpt lat="45.052450" lon="5.266350">
						<ele>221</ele>
						<time>2026-05-31T18:40:02Z</time>
					</trkpt>
					<trkpt lat="45.052220" lon="5.266580">
						<ele>222</ele>
						<time>2026-05-31T18:40:07Z</time>
					</trkpt>
					<trkpt lat="45.051980" lon="5.266840">
						<ele>222</ele>
						<time>2026-05-31T18:40:12Z</time>
					</trkpt>
					<trkpt lat="45.051010" lon="5.267960">
						<ele>225</ele>
						<time>2026-05-31T18:40:34Z</time>
					</trkpt>
					<trkpt lat="45.050900" lon="5.268130">
						<ele>225</ele>
						<time>2026-05-31T18:40:37Z</time>
					</trkpt>
					<trkpt lat="45.050820" lon="5.268310">
						<ele>225</ele>
						<time>2026-05-31T18:40:40Z</time>
					</trkpt>
					<trkpt lat="45.050780" lon="5.268470">
						<ele>225</ele>
						<time>2026-05-31T18:40:42Z</time>
					</trkpt>
					<trkpt lat="45.050780" lon="5.268690">
						<ele>225</ele>
						<time>2026-05-31T18:40:45Z</time>
					</trkpt>
					<trkpt lat="45.050800" lon="5.268830">
						<ele>224</ele>
						<time>2026-05-31T18:40:46Z</time>
					</trkpt>
					<trkpt lat="45.050840" lon="5.268950">
						<ele>224</ele>
						<time>2026-05-31T18:40:48Z</time>
					</trkpt>
					<trkpt lat="45.050910" lon="5.269170">
						<ele>224</ele>
						<time>2026-05-31T18:40:51Z</time>
					</trkpt>
					<trkpt lat="45.051020" lon="5.269480">
						<ele>224</ele>
						<time>2026-05-31T18:40:55Z</time>
					</trkpt>
					<trkpt lat="45.051080" lon="5.269750">
						<ele>224</ele>
						<time>2026-05-31T18:40:59Z</time>
					</trkpt>
					<trkpt lat="45.051110" lon="5.270000">
						<ele>224</ele>
						<time>2026-05-31T18:41:02Z</time>
					</trkpt>
					<trkpt lat="45.051120" lon="5.270250">
						<ele>224</ele>
						<time>2026-05-31T18:41:05Z</time>
					</trkpt>
					<trkpt lat="45.051100" lon="5.270520">
						<ele>225</ele>
						<time>2026-05-31T18:41:09Z</time>
					</trkpt>
					<trkpt lat="45.051060" lon="5.270830">
						<ele>225</ele>
						<time>2026-05-31T18:41:13Z</time>
					</trkpt>
					<trkpt lat="45.050990" lon="5.271230">
						<ele>226</ele>
						<time>2026-05-31T18:41:18Z</time>
					</trkpt>
					<trkpt lat="45.050800" lon="5.272040">
						<ele>228</ele>
						<time>2026-05-31T18:41:29Z</time>
					</trkpt>
					<trkpt lat="45.050750" lon="5.272230">
						<ele>228</ele>
						<time>2026-05-31T18:41:31Z</time>
					</trkpt>
					<trkpt lat="45.050730" lon="5.272420">
						<ele>228</ele>
						<time>2026-05-31T18:41:34Z</time>
					</trkpt>
					<trkpt lat="45.050710" lon="5.272680">
						<ele>228</ele>
						<time>2026-05-31T18:41:37Z</time>
					</trkpt>
					<trkpt lat="45.050700" lon="5.274610">
						<ele>227</ele>
						<time>2026-05-31T18:42:01Z</time>
					</trkpt>
					<trkpt lat="45.050710" lon="5.275020">
						<ele>226</ele>
						<time>2026-05-31T18:42:06Z</time>
					</trkpt>
					<trkpt lat="45.050760" lon="5.275290">
						<ele>224</ele>
						<time>2026-05-31T18:42:10Z</time>
					</trkpt>
					<trkpt lat="45.050880" lon="5.275550">
						<ele>223</ele>
						<time>2026-05-31T18:42:14Z</time>
					</trkpt>
					<trkpt lat="45.051030" lon="5.275750">
						<ele>222</ele>
						<time>2026-05-31T18:42:17Z</time>
					</trkpt>
					<trkpt lat="45.051710" lon="5.276410">
						<ele>218</ele>
						<time>2026-05-31T18:42:32Z</time>
					</trkpt>
					<trkpt lat="45.051820" lon="5.276540">
						<ele>216</ele>
						<time>2026-05-31T18:42:35Z</time>
					</trkpt>
					<trkpt lat="45.052230" lon="5.277080">
						<ele>215</ele>
						<time>2026-05-31T18:42:45Z</time>
					</trkpt>
					<trkpt lat="45.052360" lon="5.277210">
						<ele>216</ele>
						<time>2026-05-31T18:42:47Z</time>
					</trkpt>
					<trkpt lat="45.052470" lon="5.277290">
						<ele>217</ele>
						<time>2026-05-31T18:42:50Z</time>
					</trkpt>
					<trkpt lat="45.052590" lon="5.277310">
						<ele>218</ele>
						<time>2026-05-31T18:42:52Z</time>
					</trkpt>
					<trkpt lat="45.052680" lon="5.277300">
						<ele>218</ele>
						<time>2026-05-31T18:42:53Z</time>
					</trkpt>
					<trkpt lat="45.052850" lon="5.277220">
						<ele>218</ele>
						<time>2026-05-31T18:42:57Z</time>
					</trkpt>
					<trkpt lat="45.053470" lon="5.276810">
						<ele>216</ele>
						<time>2026-05-31T18:43:09Z</time>
					</trkpt>
					<trkpt lat="45.053580" lon="5.276770">
						<ele>214</ele>
						<time>2026-05-31T18:43:11Z</time>
					</trkpt>
					<trkpt lat="45.053680" lon="5.276780">
						<ele>213</ele>
						<time>2026-05-31T18:43:13Z</time>
					</trkpt>
					<trkpt lat="45.053820" lon="5.276830">
						<ele>211</ele>
						<time>2026-05-31T18:43:15Z</time>
					</trkpt>
					<trkpt lat="45.054760" lon="5.277510">
						<ele>211</ele>
						<time>2026-05-31T18:43:34Z</time>
					</trkpt>
					<trkpt lat="45.054920" lon="5.277670">
						<ele>210</ele>
						<time>2026-05-31T18:43:37Z</time>
					</trkpt>
					<trkpt lat="45.055050" lon="5.277890">
						<ele>211</ele>
						<time>2026-05-31T18:43:41Z</time>
					</trkpt>
					<trkpt lat="45.055110" lon="5.278070">
						<ele>211</ele>
						<time>2026-05-31T18:43:43Z</time>
					</trkpt>
					<trkpt lat="45.055150" lon="5.278250">
						<ele>212</ele>
						<time>2026-05-31T18:43:46Z</time>
					</trkpt>
					<trkpt lat="45.055170" lon="5.278580">
						<ele>212</ele>
						<time>2026-05-31T18:43:50Z</time>
					</trkpt>
					<trkpt lat="45.055170" lon="5.278970">
						<ele>212</ele>
						<time>2026-05-31T18:43:55Z</time>
					</trkpt>
					<trkpt lat="45.055170" lon="5.279730">
						<ele>213</ele>
						<time>2026-05-31T18:44:04Z</time>
					</trkpt>
					<trkpt lat="45.055170" lon="5.282150">
						<ele>214</ele>
						<time>2026-05-31T18:44:35Z</time>
					</trkpt>
					<trkpt lat="45.055180" lon="5.284100">
						<ele>214</ele>
						<time>2026-05-31T18:44:59Z</time>
					</trkpt>
					<trkpt lat="45.055170" lon="5.284490">
						<ele>214</ele>
						<time>2026-05-31T18:45:04Z</time>
					</trkpt>
					<trkpt lat="45.055120" lon="5.285180">
						<ele>215</ele>
						<time>2026-05-31T18:45:13Z</time>
					</trkpt>
					<trkpt lat="45.055080" lon="5.285690">
						<ele>215</ele>
						<time>2026-05-31T18:45:19Z</time>
					</trkpt>
					<trkpt lat="45.055040" lon="5.285900">
						<ele>215</ele>
						<time>2026-05-31T18:45:22Z</time>
					</trkpt>
					<trkpt lat="45.054990" lon="5.286060">
						<ele>215</ele>
						<time>2026-05-31T18:45:24Z</time>
					</trkpt>
					<trkpt lat="45.054960" lon="5.286090">
						<ele>215</ele>
						<time>2026-05-31T18:45:25Z</time>
					</trkpt>
					<trkpt lat="45.054930" lon="5.286130">
						<ele>215</ele>
						<time>2026-05-31T18:45:26Z</time>
					</trkpt>
					<trkpt lat="45.054910" lon="5.286170">
						<ele>215</ele>
						<time>2026-05-31T18:45:26Z</time>
					</trkpt>
					<trkpt lat="45.054900" lon="5.286230">
						<ele>215</ele>
						<time>2026-05-31T18:45:27Z</time>
					</trkpt>
					<trkpt lat="45.054890" lon="5.286280">
						<ele>215</ele>
						<time>2026-05-31T18:45:28Z</time>
					</trkpt>
					<trkpt lat="45.054840" lon="5.286460">
						<ele>215</ele>
						<time>2026-05-31T18:45:30Z</time>
					</trkpt>
					<trkpt lat="45.054780" lon="5.286600">
						<ele>215</ele>
						<time>2026-05-31T18:45:32Z</time>
					</trkpt>
					<trkpt lat="45.054620" lon="5.286820">
						<ele>215</ele>
						<time>2026-05-31T18:45:36Z</time>
					</trkpt>
					<trkpt lat="45.054520" lon="5.286980">
						<ele>215</ele>
						<time>2026-05-31T18:45:39Z</time>
					</trkpt>
					<trkpt lat="45.054420" lon="5.287180">
						<ele>215</ele>
						<time>2026-05-31T18:45:42Z</time>
					</trkpt>
					<trkpt lat="45.054320" lon="5.287390">
						<ele>216</ele>
						<time>2026-05-31T18:45:45Z</time>
					</trkpt>
					<trkpt lat="45.054220" lon="5.287620">
						<ele>216</ele>
						<time>2026-05-31T18:45:49Z</time>
					</trkpt>
					<trkpt lat="45.054210" lon="5.287650">
						<ele>216</ele>
						<time>2026-05-31T18:45:49Z</time>
					</trkpt>
					<trkpt lat="45.052480" lon="5.291670">
						<ele>218</ele>
						<time>2026-05-31T18:46:48Z</time>
					</trkpt>
					<trkpt lat="45.052290" lon="5.292070">
						<ele>219</ele>
						<time>2026-05-31T18:46:54Z</time>
					</trkpt>
					<trkpt lat="45.052220" lon="5.292180">
						<ele>219</ele>
						<time>2026-05-31T18:46:56Z</time>
					</trkpt>
					<trkpt lat="45.052140" lon="5.292280">
						<ele>219</ele>
						<time>2026-05-31T18:46:58Z</time>
					</trkpt>
					<trkpt lat="45.052100" lon="5.292320">
						<ele>219</ele>
						<time>2026-05-31T18:46:59Z</time>
					</trkpt>
					<trkpt lat="45.051920" lon="5.292480">
						<ele>220</ele>
						<time>2026-05-31T18:47:03Z</time>
					</trkpt>
					<trkpt lat="45.051530" lon="5.292770">
						<ele>220</ele>
						<time>2026-05-31T18:47:11Z</time>
					</trkpt>
					<trkpt lat="45.050940" lon="5.293200">
						<ele>221</ele>
						<time>2026-05-31T18:47:22Z</time>
					</trkpt>
					<trkpt lat="45.049690" lon="5.294110">
						<ele>224</ele>
						<time>2026-05-31T18:47:47Z</time>
					</trkpt>
					<trkpt lat="45.049480" lon="5.294260">
						<ele>224</ele>
						<time>2026-05-31T18:47:52Z</time>
					</trkpt>
					<trkpt lat="45.049380" lon="5.294330">
						<ele>224</ele>
						<time>2026-05-31T18:47:54Z</time>
					</trkpt>
					<trkpt lat="45.049280" lon="5.294410">
						<ele>224</ele>
						<time>2026-05-31T18:47:56Z</time>
					</trkpt>
					<trkpt lat="45.049230" lon="5.294450">
						<ele>224</ele>
						<time>2026-05-31T18:47:57Z</time>
					</trkpt>
					<trkpt lat="45.049170" lon="5.294490">
						<ele>224</ele>
						<time>2026-05-31T18:47:58Z</time>
					</trkpt>
					<trkpt lat="45.049010" lon="5.294610">
						<ele>224</ele>
						<time>2026-05-31T18:48:01Z</time>
					</trkpt>
					<trkpt lat="45.048930" lon="5.294730">
						<ele>224</ele>
						<time>2026-05-31T18:48:03Z</time>
					</trkpt>
					<trkpt lat="45.048870" lon="5.294830">
						<ele>224</ele>
						<time>2026-05-31T18:48:05Z</time>
					</trkpt>
					<trkpt lat="45.048820" lon="5.294890">
						<ele>224</ele>
						<time>2026-05-31T18:48:06Z</time>
					</trkpt>
					<trkpt lat="45.048340" lon="5.295250">
						<ele>224</ele>
						<time>2026-05-31T18:48:16Z</time>
					</trkpt>
					<trkpt lat="45.048250" lon="5.295290">
						<ele>225</ele>
						<time>2026-05-31T18:48:17Z</time>
					</trkpt>
					<trkpt lat="45.048140" lon="5.295310">
						<ele>227</ele>
						<time>2026-05-31T18:48:19Z</time>
					</trkpt>
					<trkpt lat="45.048050" lon="5.295340">
						<ele>229</ele>
						<time>2026-05-31T18:48:21Z</time>
					</trkpt>
					<trkpt lat="45.047880" lon="5.295460">
						<ele>230</ele>
						<time>2026-05-31T18:48:24Z</time>
					</trkpt>
					<trkpt lat="45.047760" lon="5.295540">
						<ele>231</ele>
						<time>2026-05-31T18:48:27Z</time>
					</trkpt>
					<trkpt lat="45.047370" lon="5.295830">
						<ele>229</ele>
						<time>2026-05-31T18:48:34Z</time>
					</trkpt>
					<trkpt lat="45.047060" lon="5.296050">
						<ele>229</ele>
						<time>2026-05-31T18:48:41Z</time>
					</trkpt>
					<trkpt lat="45.046820" lon="5.296220">
						<ele>228</ele>
						<time>2026-05-31T18:48:45Z</time>
					</trkpt>
					<trkpt lat="45.046750" lon="5.296270">
						<ele>228</ele>
						<time>2026-05-31T18:48:47Z</time>
					</trkpt>
					<trkpt lat="45.046630" lon="5.296360">
						<ele>227</ele>
						<time>2026-05-31T18:48:49Z</time>
					</trkpt>
					<trkpt lat="45.046570" lon="5.296410">
						<ele>227</ele>
						<time>2026-05-31T18:48:50Z</time>
					</trkpt>
					<trkpt lat="45.045460" lon="5.297220">
						<ele>228</ele>
						<time>2026-05-31T18:49:13Z</time>
					</trkpt>
					<trkpt lat="45.045140" lon="5.297350">
						<ele>230</ele>
						<time>2026-05-31T18:49:19Z</time>
					</trkpt>
					<trkpt lat="45.044860" lon="5.297420">
						<ele>230</ele>
						<time>2026-05-31T18:49:24Z</time>
					</trkpt>
					<trkpt lat="45.044780" lon="5.297470">
						<ele>228</ele>
						<time>2026-05-31T18:49:25Z</time>
					</trkpt>
					<trkpt lat="45.044400" lon="5.297520">
						<ele>226</ele>
						<time>2026-05-31T18:49:32Z</time>
					</trkpt>
					<trkpt lat="45.044400" lon="5.297480">
						<ele>226</ele>
						<time>2026-05-31T18:49:32Z</time>
					</trkpt>
					<trkpt lat="45.044120" lon="5.297510">
						<ele>225</ele>
						<time>2026-05-31T18:49:37Z</time>
					</trkpt>
					<trkpt lat="45.043870" lon="5.297520">
						<ele>225</ele>
						<time>2026-05-31T18:49:42Z</time>
					</trkpt>
					<trkpt lat="45.043380" lon="5.297430">
						<ele>225</ele>
						<time>2026-05-31T18:49:51Z</time>
					</trkpt>
					<trkpt lat="45.042960" lon="5.297330">
						<ele>228</ele>
						<time>2026-05-31T18:49:58Z</time>
					</trkpt>
					<trkpt lat="45.042610" lon="5.297260">
						<ele>229</ele>
						<time>2026-05-31T18:50:05Z</time>
					</trkpt>
					<trkpt lat="45.041990" lon="5.297130">
						<ele>233</ele>
						<time>2026-05-31T18:50:16Z</time>
					</trkpt>
					<trkpt lat="45.041340" lon="5.297080">
						<ele>236</ele>
						<time>2026-05-31T18:50:27Z</time>
					</trkpt>
					<trkpt lat="45.041090" lon="5.297070">
						<ele>237</ele>
						<time>2026-05-31T18:50:32Z</time>
					</trkpt>
					<trkpt lat="45.040790" lon="5.297080">
						<ele>238</ele>
						<time>2026-05-31T18:50:37Z</time>
					</trkpt>
					<trkpt lat="45.039000" lon="5.297260">
						<ele>236</ele>
						<time>2026-05-31T18:51:09Z</time>
					</trkpt>
					<trkpt lat="45.038270" lon="5.297330">
						<ele>238</ele>
						<time>2026-05-31T18:51:22Z</time>
					</trkpt>
					<trkpt lat="45.037480" lon="5.297400">
						<ele>241</ele>
						<time>2026-05-31T18:51:36Z</time>
					</trkpt>
					<trkpt lat="45.037350" lon="5.297380">
						<ele>240</ele>
						<time>2026-05-31T18:51:38Z</time>
					</trkpt>
					<trkpt lat="45.037220" lon="5.297340">
						<ele>240</ele>
						<time>2026-05-31T18:51:41Z</time>
					</trkpt>
					<trkpt lat="45.037040" lon="5.297250">
						<ele>239</ele>
						<time>2026-05-31T18:51:44Z</time>
					</trkpt>
					<trkpt lat="45.036870" lon="5.297100">
						<ele>239</ele>
						<time>2026-05-31T18:51:48Z</time>
					</trkpt>
					<trkpt lat="45.036230" lon="5.296370">
						<ele>237</ele>
						<time>2026-05-31T18:52:02Z</time>
					</trkpt>
					<trkpt lat="45.035570" lon="5.295590">
						<ele>232</ele>
						<time>2026-05-31T18:52:18Z</time>
					</trkpt>
					<trkpt lat="45.035410" lon="5.295350">
						<ele>232</ele>
						<time>2026-05-31T18:52:22Z</time>
					</trkpt>
					<trkpt lat="45.035310" lon="5.295180">
						<ele>231</ele>
						<time>2026-05-31T18:52:25Z</time>
					</trkpt>
					<trkpt lat="45.035140" lon="5.294800">
						<ele>232</ele>
						<time>2026-05-31T18:52:30Z</time>
					</trkpt>
					<trkpt lat="45.034720" lon="5.293910">
						<ele>235</ele>
						<time>2026-05-31T18:52:44Z</time>
					</trkpt>
					<trkpt lat="45.034600" lon="5.293740">
						<ele>235</ele>
						<time>2026-05-31T18:52:47Z</time>
					</trkpt>
					<trkpt lat="45.034490" lon="5.293620">
						<ele>235</ele>
						<time>2026-05-31T18:52:49Z</time>
					</trkpt>
					<trkpt lat="45.032900" lon="5.292310">
						<ele>232</ele>
						<time>2026-05-31T18:53:22Z</time>
					</trkpt>
					<trkpt lat="45.032810" lon="5.292240">
						<ele>232</ele>
						<time>2026-05-31T18:53:24Z</time>
					</trkpt>
					<trkpt lat="45.032340" lon="5.291850">
						<ele>231</ele>
						<time>2026-05-31T18:53:34Z</time>
					</trkpt>
					<trkpt lat="45.032200" lon="5.291740">
						<ele>230</ele>
						<time>2026-05-31T18:53:36Z</time>
					</trkpt>
					<trkpt lat="45.031950" lon="5.291540">
						<ele>229</ele>
						<time>2026-05-31T18:53:41Z</time>
					</trkpt>
					<trkpt lat="45.031780" lon="5.291400">
						<ele>229</ele>
						<time>2026-05-31T18:53:45Z</time>
					</trkpt>
					<trkpt lat="45.031270" lon="5.290940">
						<ele>229</ele>
						<time>2026-05-31T18:53:56Z</time>
					</trkpt>
					<trkpt lat="45.030470" lon="5.290140">
						<ele>227</ele>
						<time>2026-05-31T18:54:13Z</time>
					</trkpt>
					<trkpt lat="45.029920" lon="5.289630">
						<ele>228</ele>
						<time>2026-05-31T18:54:25Z</time>
					</trkpt>
					<trkpt lat="45.029790" lon="5.289520">
						<ele>228</ele>
						<time>2026-05-31T18:54:28Z</time>
					</trkpt>
					<trkpt lat="45.029660" lon="5.289460">
						<ele>228</ele>
						<time>2026-05-31T18:54:30Z</time>
					</trkpt>
					<trkpt lat="45.029520" lon="5.289420">
						<ele>228</ele>
						<time>2026-05-31T18:54:33Z</time>
					</trkpt>
					<trkpt lat="45.029370" lon="5.289420">
						<ele>227</ele>
						<time>2026-05-31T18:54:35Z</time>
					</trkpt>
					<trkpt lat="45.029220" lon="5.289430">
						<ele>226</ele>
						<time>2026-05-31T18:54:38Z</time>
					</trkpt>
					<trkpt lat="45.028770" lon="5.289540">
						<ele>223</ele>
						<time>2026-05-31T18:54:46Z</time>
					</trkpt>
					<trkpt lat="45.028620" lon="5.289560">
						<ele>223</ele>
						<time>2026-05-31T18:54:49Z</time>
					</trkpt>
					<trkpt lat="45.028460" lon="5.289550">
						<ele>223</ele>
						<time>2026-05-31T18:54:52Z</time>
					</trkpt>
					<trkpt lat="45.028330" lon="5.289510">
						<ele>223</ele>
						<time>2026-05-31T18:54:54Z</time>
					</trkpt>
					<trkpt lat="45.028190" lon="5.289470">
						<ele>222</ele>
						<time>2026-05-31T18:54:56Z</time>
					</trkpt>
					<trkpt lat="45.028040" lon="5.289420">
						<ele>222</ele>
						<time>2026-05-31T18:54:59Z</time>
					</trkpt>
					<trkpt lat="45.027870" lon="5.289300">
						<ele>221</ele>
						<time>2026-05-31T18:55:03Z</time>
					</trkpt>
					<trkpt lat="45.027710" lon="5.289160">
						<ele>220</ele>
						<time>2026-05-31T18:55:06Z</time>
					</trkpt>
					<trkpt lat="45.027340" lon="5.288830">
						<ele>220</ele>
						<time>2026-05-31T18:55:14Z</time>
					</trkpt>
					<trkpt lat="45.026530" lon="5.288090">
						<ele>223</ele>
						<time>2026-05-31T18:55:31Z</time>
					</trkpt>
					<trkpt lat="45.026320" lon="5.287970">
						<ele>224</ele>
						<time>2026-05-31T18:55:35Z</time>
					</trkpt>
					<trkpt lat="45.026200" lon="5.287890">
						<ele>224</ele>
						<time>2026-05-31T18:55:37Z</time>
					</trkpt>
					<trkpt lat="45.026070" lon="5.287820">
						<ele>224</ele>
						<time>2026-05-31T18:55:40Z</time>
					</trkpt>
					<trkpt lat="45.026030" lon="5.287750">
						<ele>225</ele>
						<time>2026-05-31T18:55:41Z</time>
					</trkpt>
					<trkpt lat="45.025990" lon="5.287720">
						<ele>225</ele>
						<time>2026-05-31T18:55:42Z</time>
					</trkpt>
					<trkpt lat="45.025950" lon="5.287700">
						<ele>225</ele>
						<time>2026-05-31T18:55:42Z</time>
					</trkpt>
					<trkpt lat="45.025910" lon="5.287710">
						<ele>225</ele>
						<time>2026-05-31T18:55:43Z</time>
					</trkpt>
					<trkpt lat="45.025880" lon="5.287740">
						<ele>225</ele>
						<time>2026-05-31T18:55:44Z</time>
					</trkpt>
					<trkpt lat="45.025850" lon="5.287770">
						<ele>224</ele>
						<time>2026-05-31T18:55:44Z</time>
					</trkpt>
					<trkpt lat="45.025830" lon="5.287810">
						<ele>224</ele>
						<time>2026-05-31T18:55:45Z</time>
					</trkpt>
					<trkpt lat="45.025740" lon="5.287850">
						<ele>224</ele>
						<time>2026-05-31T18:55:47Z</time>
					</trkpt>
					<trkpt lat="45.025660" lon="5.287850">
						<ele>223</ele>
						<time>2026-05-31T18:55:48Z</time>
					</trkpt>
					<trkpt lat="45.025440" lon="5.287820">
						<ele>223</ele>
						<time>2026-05-31T18:55:52Z</time>
					</trkpt>
					<trkpt lat="45.025360" lon="5.287740">
						<ele>223</ele>
						<time>2026-05-31T18:55:54Z</time>
					</trkpt>
					<trkpt lat="45.025230" lon="5.287550">
						<ele>223</ele>
						<time>2026-05-31T18:55:57Z</time>
					</trkpt>
					<trkpt lat="45.024960" lon="5.286990">
						<ele>231</ele>
						<time>2026-05-31T18:56:06Z</time>
					</trkpt>
					<trkpt lat="45.024870" lon="5.286870">
						<ele>232</ele>
						<time>2026-05-31T18:56:08Z</time>
					</trkpt>
					<trkpt lat="45.024780" lon="5.286780">
						<ele>233</ele>
						<time>2026-05-31T18:56:10Z</time>
					</trkpt>
					<trkpt lat="45.024660" lon="5.286700">
						<ele>233</ele>
						<time>2026-05-31T18:56:12Z</time>
					</trkpt>
					<trkpt lat="45.024580" lon="5.286660">
						<ele>233</ele>
						<time>2026-05-31T18:56:14Z</time>
					</trkpt>
					<trkpt lat="45.024370" lon="5.286640">
						<ele>231</ele>
						<time>2026-05-31T18:56:17Z</time>
					</trkpt>
					<trkpt lat="45.024240" lon="5.286670">
						<ele>230</ele>
						<time>2026-05-31T18:56:20Z</time>
					</trkpt>
					<trkpt lat="45.024180" lon="5.286700">
						<ele>229</ele>
						<time>2026-05-31T18:56:21Z</time>
					</trkpt>
					<trkpt lat="45.023970" lon="5.286830">
						<ele>231</ele>
						<time>2026-05-31T18:56:25Z</time>
					</trkpt>
					<trkpt lat="45.023830" lon="5.286950">
						<ele>232</ele>
						<time>2026-05-31T18:56:28Z</time>
					</trkpt>
					<trkpt lat="45.023730" lon="5.287060">
						<ele>233</ele>
						<time>2026-05-31T18:56:30Z</time>
					</trkpt>
					<trkpt lat="45.023550" lon="5.287250">
						<ele>233</ele>
						<time>2026-05-31T18:56:34Z</time>
					</trkpt>
					<trkpt lat="45.023450" lon="5.287390">
						<ele>233</ele>
						<time>2026-05-31T18:56:37Z</time>
					</trkpt>
					<trkpt lat="45.023340" lon="5.287580">
						<ele>233</ele>
						<time>2026-05-31T18:56:40Z</time>
					</trkpt>
					<trkpt lat="45.023170" lon="5.287910">
						<ele>232</ele>
						<time>2026-05-31T18:56:45Z</time>
					</trkpt>
					<trkpt lat="45.023100" lon="5.288090">
						<ele>232</ele>
						<time>2026-05-31T18:56:47Z</time>
					</trkpt>
					<trkpt lat="45.022940" lon="5.288550">
						<ele>231</ele>
						<time>2026-05-31T18:56:54Z</time>
					</trkpt>
					<trkpt lat="45.022770" lon="5.289000">
						<ele>232</ele>
						<time>2026-05-31T18:57:00Z</time>
					</trkpt>
					<trkpt lat="45.022720" lon="5.289080">
						<ele>231</ele>
						<time>2026-05-31T18:57:02Z</time>
					</trkpt>
					<trkpt lat="45.022540" lon="5.289300">
						<ele>232</ele>
						<time>2026-05-31T18:57:06Z</time>
					</trkpt>
					<trkpt lat="45.021980" lon="5.289930">
						<ele>237</ele>
						<time>2026-05-31T18:57:19Z</time>
					</trkpt>
					<trkpt lat="45.021540" lon="5.290500">
						<ele>240</ele>
						<time>2026-05-31T18:57:29Z</time>
					</trkpt>
					<trkpt lat="45.021200" lon="5.290900">
						<ele>242</ele>
						<time>2026-05-31T18:57:37Z</time>
					</trkpt>
					<trkpt lat="45.020920" lon="5.291200">
						<ele>243</ele>
						<time>2026-05-31T18:57:43Z</time>
					</trkpt>
					<trkpt lat="45.020690" lon="5.291440">
						<ele>243</ele>
						<time>2026-05-31T18:57:48Z</time>
					</trkpt>
					<trkpt lat="45.020540" lon="5.291310">
						<ele>243</ele>
						<time>2026-05-31T18:57:52Z</time>
					</trkpt>
					<trkpt lat="45.020450" lon="5.291270">
						<ele>243</ele>
						<time>2026-05-31T18:57:53Z</time>
					</trkpt>
					<trkpt lat="45.020220" lon="5.291150">
						<ele>243</ele>
						<time>2026-05-31T18:57:58Z</time>
					</trkpt>
					<trkpt lat="45.019890" lon="5.290980">
						<ele>243</ele>
						<time>2026-05-31T18:58:04Z</time>
					</trkpt>
					<trkpt lat="45.019420" lon="5.290750">
						<ele>243</ele>
						<time>2026-05-31T18:58:13Z</time>
					</trkpt>
					<trkpt lat="45.019150" lon="5.290610">
						<ele>243</ele>
						<time>2026-05-31T18:58:18Z</time>
					</trkpt>
					<trkpt lat="45.018840" lon="5.290450">
						<ele>242</ele>
						<time>2026-05-31T18:58:24Z</time>
					</trkpt>
					<trkpt lat="45.018700" lon="5.290360">
						<ele>241</ele>
						<time>2026-05-31T18:58:26Z</time>
					</trkpt>
					<trkpt lat="45.018660" lon="5.290340">
						<ele>241</ele>
						<time>2026-05-31T18:58:27Z</time>
					</trkpt>
					<trkpt lat="45.018500" lon="5.290270">
						<ele>241</ele>
						<time>2026-05-31T18:58:30Z</time>
					</trkpt>
					<trkpt lat="45.018290" lon="5.290090">
						<ele>241</ele>
						<time>2026-05-31T18:58:35Z</time>
					</trkpt>
					<trkpt lat="45.018260" lon="5.290050">
						<ele>241</ele>
						<time>2026-05-31T18:58:35Z</time>
					</trkpt>
					<trkpt lat="45.018220" lon="5.289870">
						<ele>240</ele>
						<time>2026-05-31T18:58:38Z</time>
					</trkpt>
					<trkpt lat="45.018150" lon="5.289640">
						<ele>240</ele>
						<time>2026-05-31T18:58:41Z</time>
					</trkpt>
					<trkpt lat="45.018050" lon="5.289460">
						<ele>240</ele>
						<time>2026-05-31T18:58:44Z</time>
					</trkpt>
					<trkpt lat="45.017860" lon="5.289390">
						<ele>241</ele>
						<time>2026-05-31T18:58:47Z</time>
					</trkpt>
					<trkpt lat="45.017630" lon="5.289300">
						<ele>243</ele>
						<time>2026-05-31T18:58:51Z</time>
					</trkpt>
					<trkpt lat="45.016430" lon="5.288760">
						<ele>244</ele>
						<time>2026-05-31T18:59:14Z</time>
					</trkpt>
					<trkpt lat="45.015680" lon="5.288430">
						<ele>245</ele>
						<time>2026-05-31T18:59:28Z</time>
					</trkpt>
					<trkpt lat="45.015380" lon="5.288320">
						<ele>245</ele>
						<time>2026-05-31T18:59:33Z</time>
					</trkpt>
					<trkpt lat="45.015070" lon="5.288340">
						<ele>246</ele>
						<time>2026-05-31T18:59:39Z</time>
					</trkpt>
					<trkpt lat="45.014940" lon="5.288340">
						<ele>246</ele>
						<time>2026-05-31T18:59:41Z</time>
					</trkpt>
					<trkpt lat="45.014740" lon="5.288320">
						<ele>246</ele>
						<time>2026-05-31T18:59:45Z</time>
					</trkpt>
					<trkpt lat="45.014600" lon="5.288300">
						<ele>246</ele>
						<time>2026-05-31T18:59:47Z</time>
					</trkpt>
					<trkpt lat="45.014410" lon="5.288340">
						<ele>246</ele>
						<time>2026-05-31T18:59:51Z</time>
					</trkpt>
					<trkpt lat="45.014150" lon="5.288440">
						<ele>247</ele>
						<time>2026-05-31T18:59:55Z</time>
					</trkpt>
					<trkpt lat="45.014020" lon="5.288470">
						<ele>247</ele>
						<time>2026-05-31T18:59:58Z</time>
					</trkpt>
					<trkpt lat="45.013710" lon="5.288510">
						<ele>248</ele>
						<time>2026-05-31T19:00:03Z</time>
					</trkpt>
					<trkpt lat="45.013520" lon="5.288520">
						<ele>248</ele>
						<time>2026-05-31T19:00:07Z</time>
					</trkpt>
					<trkpt lat="45.013390" lon="5.288540">
						<ele>248</ele>
						<time>2026-05-31T19:00:09Z</time>
					</trkpt>
					<trkpt lat="45.013280" lon="5.288530">
						<ele>249</ele>
						<time>2026-05-31T19:00:11Z</time>
					</trkpt>
					<trkpt lat="45.012910" lon="5.288360">
						<ele>249</ele>
						<time>2026-05-31T19:00:18Z</time>
					</trkpt>
					<trkpt lat="45.012770" lon="5.288340">
						<ele>250</ele>
						<time>2026-05-31T19:00:20Z</time>
					</trkpt>
					<trkpt lat="45.012540" lon="5.288490">
						<ele>253</ele>
						<time>2026-05-31T19:00:25Z</time>
					</trkpt>
					<trkpt lat="45.012480" lon="5.288460">
						<ele>253</ele>
						<time>2026-05-31T19:00:26Z</time>
					</trkpt>
					<trkpt lat="45.011780" lon="5.288220">
						<ele>255</ele>
						<time>2026-05-31T19:00:39Z</time>
					</trkpt>
					<trkpt lat="45.011370" lon="5.287880">
						<ele>252</ele>
						<time>2026-05-31T19:00:47Z</time>
					</trkpt>
					<trkpt lat="45.011090" lon="5.287620">
						<ele>250</ele>
						<time>2026-05-31T19:00:53Z</time>
					</trkpt>
					<trkpt lat="45.011120" lon="5.287540">
						<ele>248</ele>
						<time>2026-05-31T19:00:54Z</time>
					</trkpt>
					<trkpt lat="45.011250" lon="5.286960">
						<ele>245</ele>
						<time>2026-05-31T19:01:02Z</time>
					</trkpt>
					<trkpt lat="45.011380" lon="5.287070">
						<ele>245</ele>
						<time>2026-05-31T19:01:05Z</time>
					</trkpt>
					<trkpt lat="45.011440" lon="5.287240">
						<ele>245</ele>
						<time>2026-05-31T19:01:07Z</time>
					</trkpt>
					<trkpt lat="45.011480" lon="5.287260">
						<ele>245</ele>
						<time>2026-05-31T19:01:08Z</time>
					</trkpt>
					<trkpt lat="45.011480" lon="5.287260">
						<ele>245</ele>
						<time>2026-05-31T19:01:08Z</time>
					</trkpt>
					<trkpt lat="45.011600" lon="5.287330">
						<ele>245</ele>
						<time>2026-05-31T19:01:10Z</time>
					</trkpt>
					</trkseg>
				</trk>
			</gpx>